{"type":"FeatureCollection","features":[{"type":"Feature","properties":{"name":"Cesana Torinese","osm_id":43801,"source":"OpenStreetMap Nominatim"},"geometry":{"type":"Polygon","coordinates":[[[6.7373504,44.9931227],[6.7373619,44.9921867],[6.7375577,44.9907593],[6.737894,44.9893386],[6.7414111,44.9890446],[6.7443728,44.9875355],[6.7463365,44.98633],[6.7494024,44.9848831],[6.750464,44.984143],[6.751207,44.983166],[6.751269,44.982916],[6.751276,44.982713],[6.751134,44.981951],[6.751976,44.97936],[6.751982,44.979317],[6.752201,44.978662],[6.75221,44.978619],[6.752446,44.977905],[6.752771,44.977496],[6.753054,44.977171],[6.753409,44.976729],[6.753864,44.976314],[6.755956,44.975187],[6.762271,44.972815],[6.762411,44.972689],[6.763419,44.971226],[6.763506,44.970769],[6.764887,44.964169],[6.765327,44.962125],[6.764902,44.9596],[6.763428,44.957249],[6.759308,44.950618],[6.758763,44.949833],[6.758521,44.948604],[6.758538,44.948071],[6.7593984,44.9471078],[6.7599365,44.9465963],[6.7607478,44.9457795],[6.761054,44.9454263],[6.7611775,44.9452838],[6.7613994,44.9451081],[6.7614029,44.9445006],[6.7613804,44.943825],[6.7613578,44.9431539],[6.7613678,44.9423664],[6.7605023,44.9422054],[6.7599718,44.9419992],[6.7599524,44.9419336],[6.7599488,44.9418615],[6.7599381,44.9417803],[6.7599104,44.9417077],[6.7598684,44.9416169],[6.759811,44.9415257],[6.7597313,44.9414251],[6.7596564,44.9413246],[6.75958,44.9412421],[6.7594477,44.9411495],[6.7592989,44.9410656],[6.7591763,44.9410001],[6.7590236,44.9409431],[6.7588122,44.9408692],[6.7586489,44.9406702],[6.758197,44.9404138],[6.7578164,44.9397942],[6.7578144,44.9394476],[6.7581677,44.9387974],[6.7584365,44.9383526],[6.7585143,44.937931],[6.7585288,44.9375577],[6.7586981,44.9370344],[6.7590132,44.9365815],[6.7593364,44.9364483],[6.7595732,44.9362864],[6.759616,44.9359812],[6.759447,44.93555],[6.759553,44.935464],[6.759601,44.935413],[6.759705,44.934804],[6.759791,44.934674],[6.760327,44.934202],[6.760349,44.934097],[6.760661,44.933845],[6.76071,44.933784],[6.7607666,44.9335526],[6.7610621,44.933318],[6.7614238,44.9332126],[6.7619896,44.9330346],[6.7625986,44.9329025],[6.7627881,44.9326227],[6.7628732,44.9321653],[6.7628625,44.931859],[6.7626523,44.9315218],[6.7622205,44.9311172],[6.7614675,44.9303553],[6.7612578,44.9300046],[6.7610982,44.9295064],[6.7611398,44.9290166],[6.7612748,44.9284161],[6.7615323,44.9281196],[6.7620459,44.927558],[6.762122,44.927321],[6.7623851,44.9268805],[6.7625632,44.9263304],[6.7628245,44.9259349],[6.7631022,44.9256883],[6.763658,44.9251906],[6.7639731,44.9245622],[6.7641852,44.9242783],[6.7642642,44.9239782],[6.7643153,44.9232321],[6.7645113,44.9227948],[6.7647706,44.9224488],[6.7648233,44.9222428],[6.764723,44.9219393],[6.7647379,44.921557],[6.7649167,44.9212066],[6.7648806,44.9207676],[6.7649788,44.9199593],[6.7651125,44.9193903],[6.7656257,44.9185317],[6.7655161,44.9183765],[6.7652852,44.918237],[6.7646888,44.9180858],[6.7639239,44.9178412],[6.7633328,44.9175551],[6.7629587,44.9172282],[6.7626104,44.9167758],[6.7623665,44.9164199],[6.7620837,44.9159418],[6.7619619,44.9157548],[6.7619044,44.9155737],[6.7617826,44.9153867],[6.761596,44.9152165],[6.7613857,44.9150864],[6.7610891,44.9149771],[6.7606643,44.9148427],[6.7604082,44.9147927],[6.7602834,44.9146822],[6.76014,44.9144993],[6.7599294,44.9143872],[6.7596561,44.9142288],[6.7594911,44.914041],[6.7594319,44.9139048],[6.7592005,44.9137787],[6.7585616,44.9136132],[6.7580089,44.9134493],[6.7572813,44.9133585],[6.7563151,44.9133215],[6.7555826,44.9133566],[6.7551263,44.9134826],[6.754733,44.9136414],[6.7544691,44.9137893],[6.7542483,44.913938],[6.7540501,44.9140556],[6.7536394,44.9141105],[6.7529708,44.9141604],[6.7523484,44.9141301],[6.7516785,44.9142115],[6.750305,44.914274],[6.750367,44.914207],[6.750472,44.914076],[6.750567,44.913942],[6.750699,44.91353],[6.750755,44.913198],[6.750825,44.912863],[6.750867,44.912765],[6.750997,44.912446],[6.751114,44.912124],[6.751172,44.911029],[6.751118,44.910679],[6.751115,44.909723],[6.750505,44.908801],[6.750149,44.907899],[6.749776,44.907334],[6.751206,44.906146],[6.7522768,44.9055548],[6.7525478,44.9057808],[6.7528665,44.9059046],[6.7531595,44.9057726],[6.7539306,44.9056804],[6.7546207,44.9053794],[6.7553027,44.9051651],[6.7556457,44.9050992],[6.7575083,44.9045117],[6.7578425,44.9044736],[6.7582208,44.9043529],[6.7587589,44.9039883],[6.7600658,44.9036048],[6.7603416,44.9034104],[6.7606383,44.9030506],[6.7614174,44.9026972],[6.7627809,44.9025394],[6.7635744,44.902602],[6.7646526,44.9024733],[6.7653652,44.9024702],[6.766125,44.9023729],[6.7665603,44.9024008],[6.7673295,44.9022453],[6.7683214,44.9025321],[6.7685201,44.902628],[6.7688943,44.9030062],[6.7692238,44.9032226],[6.7693963,44.90326],[6.7698133,44.9031598],[6.7702162,44.9031378],[6.7705177,44.9032919],[6.7709835,44.9037024],[6.7711367,44.9034646],[6.7716246,44.9024979],[6.7726378,44.9016786],[6.7743044,44.9014905],[6.7748439,44.9010987],[6.7756569,44.9008625],[6.7761895,44.9006688],[6.7766657,44.9003378],[6.7768599,44.8999452],[6.776944,44.8992729],[6.7771741,44.8987766],[6.77769,44.8984606],[6.7783539,44.8979669],[6.7786187,44.8970424],[6.7788328,44.8964177],[6.7790704,44.8959288],[6.7789453,44.8957398],[6.7787795,44.8953229],[6.778856,44.8951157],[6.7789645,44.8950042],[6.7791879,44.8949252],[6.7793433,44.8947689],[6.7796286,44.8940781],[6.7797373,44.893611],[6.7798381,44.8935213],[6.7804826,44.8932235],[6.7810655,44.8930343],[6.7812219,44.8930729],[6.7817759,44.893645],[6.7820765,44.8938074],[6.7827013,44.8937713],[6.7830774,44.8936231],[6.7836448,44.8926583],[6.7834393,44.8919732],[6.7835814,44.8912851],[6.7836912,44.8910172],[6.7838064,44.8908817],[6.7842714,44.8906503],[6.784307,44.8902217],[6.7846162,44.8898873],[6.7847877,44.8897579],[6.7849616,44.8895051],[6.7846931,44.8884939],[6.7848729,44.8882727],[6.7850858,44.8882596],[6.7855292,44.8883731],[6.7864064,44.8888917],[6.7872771,44.8894465],[6.7884037,44.8896491],[6.7893736,44.8901286],[6.7902332,44.8904287],[6.7907078,44.8903839],[6.7913002,44.8901406],[6.7915577,44.8899185],[6.7919045,44.8895788],[6.7922428,44.8893828],[6.7926207,44.8893813],[6.793571,44.8896259],[6.7943207,44.8899235],[6.7956126,44.8906227],[6.7965912,44.8913798],[6.7970025,44.8915317],[6.7974794,44.8915635],[6.7983365,44.8914385],[6.8003327,44.8910153],[6.8017233,44.8910486],[6.7998397,44.8881641],[6.8005991,44.8845949],[6.8020785,44.881152],[6.8066294,44.8786309],[6.8071508,44.8769091],[6.8075258,44.8760273],[6.8076445,44.8758288],[6.8081807,44.875745],[6.8086967,44.8757514],[6.8093453,44.8755985],[6.81009,44.8752235],[6.8110117,44.8751795],[6.8120491,44.8750619],[6.8125448,44.874742],[6.8133174,44.8739162],[6.8143186,44.8735328],[6.815241,44.873431],[6.8156487,44.8732637],[6.8159574,44.8729003],[6.8161538,44.8723173],[6.8163092,44.8722114],[6.8167269,44.8719771],[6.8171802,44.8717892],[6.8176751,44.8715838],[6.8182174,44.8713758],[6.8186508,44.8713521],[6.8194527,44.871164],[6.820245,44.871059],[6.82156,44.8707515],[6.8223083,44.8703505],[6.8228547,44.8701772],[6.8229866,44.8699296],[6.8233448,44.8696064],[6.8235932,44.8694747],[6.8241083,44.8691545],[6.8243144,44.8689589],[6.8245225,44.8687613],[6.8248008,44.8685665],[6.825401,44.868424],[6.8263152,44.8681519],[6.8272286,44.8680122],[6.8274532,44.8680878],[6.8277976,44.8680976],[6.8280038,44.8680862],[6.8286998,44.8679205],[6.8293326,44.8678474],[6.8298804,44.867828],[6.8301648,44.8678709],[6.8302455,44.8678303],[6.8306121,44.8675894],[6.8309711,44.8670854],[6.8313554,44.8666345],[6.8317239,44.8664504],[6.8319904,44.8662444],[6.8321115,44.8662441],[6.8323438,44.8661504],[6.8324242,44.866043],[6.8323642,44.8656848],[6.8324774,44.8651731],[6.8325895,44.8647209],[6.8330327,44.8644869],[6.8332848,44.8639698],[6.8335336,44.8637951],[6.8339547,44.8636905],[6.8345883,44.8633899],[6.8358448,44.8628689],[6.8375639,44.862262],[6.8377014,44.8621691],[6.8383158,44.8619431],[6.8385068,44.8618222],[6.838638,44.8608992],[6.8395022,44.8607082],[6.8399165,44.8603861],[6.8402074,44.8601225],[6.8408062,44.8600663],[6.8409795,44.8599382],[6.8412608,44.8598011],[6.8414694,44.8595964],[6.8420513,44.8598332],[6.8423759,44.8597256],[6.8427513,44.8597032],[6.8438522,44.8596879],[6.8446532,44.859534],[6.8457218,44.8593324],[6.8466997,44.8590783],[6.8479256,44.8587877],[6.8493671,44.8583184],[6.8503394,44.8578717],[6.8511019,44.8575688],[6.8518967,44.8576894],[6.8525011,44.8579074],[6.8532904,44.8579547],[6.854358,44.8580241],[6.8546538,44.8576912],[6.8550156,44.8572291],[6.8564064,44.8562956],[6.8577471,44.8560484],[6.8582451,44.8549449],[6.8586225,44.8540135],[6.8595724,44.8530011],[6.8610243,44.8525476],[6.8618262,44.8521567],[6.861861,44.8517689],[6.8627018,44.8513535],[6.862892,44.8507682],[6.8635712,44.8504981],[6.8649859,44.8504291],[6.8663907,44.8503818],[6.8680491,44.8503491],[6.8705526,44.8498399],[6.8715124,44.850268],[6.8725961,44.8503046],[6.8737188,44.8507927],[6.8766594,44.8510911],[6.8775858,44.8510958],[6.878214,44.8510605],[6.8783921,44.8510103],[6.8796606,44.850364],[6.8799052,44.8502143],[6.8809508,44.8493493],[6.8836651,44.8478059],[6.8843673,44.8476644],[6.8856365,44.8474679],[6.886592,44.8473971],[6.8871892,44.8473791],[6.8881055,44.8473906],[6.8890454,44.8474817],[6.8911554,44.8476487],[6.892519,44.8477791],[6.8937785,44.8480386],[6.8940775,44.8480229],[6.8942409,44.8479936],[6.8947512,44.8478603],[6.8960192,44.8474853],[6.8969741,44.8472968],[6.8976908,44.8471181],[6.8985226,44.8470064],[6.8989182,44.8469739],[6.8995041,44.8469528],[6.9001702,44.8469613],[6.9021019,44.8470939],[6.9033196,44.8471188],[6.9039253,44.8470721],[6.9045558,44.8469548],[6.9049613,44.8468381],[6.9051373,44.8467517],[6.9054355,44.8465479],[6.9056293,44.846372],[6.9059273,44.8460411],[6.906047,44.8458488],[6.9061539,44.8455622],[6.9062213,44.8452682],[6.9062513,44.8450892],[6.906449,44.8439099],[6.9064979,44.8437437],[6.9065727,44.8435844],[6.9067654,44.8433068],[6.9067999,44.8432822],[6.9073599,44.8434416],[6.9076583,44.8435539],[6.9081451,44.8437808],[6.9085618,44.8440204],[6.909626,44.8444582],[6.9105933,44.8447544],[6.9124192,44.8451601],[6.9129379,44.8453152],[6.9134616,44.8455471],[6.9143085,44.8460084],[6.9144493,44.8461105],[6.9150117,44.8467671],[6.9152595,44.8470972],[6.9157028,44.8477958],[6.9158329,44.8479633],[6.9163253,44.8486036],[6.9165205,44.8489412],[6.9167535,44.8492622],[6.9190962,44.850556],[6.919539,44.8505998],[6.919978,44.8507011],[6.9212844,44.8509785],[6.9216007,44.8511104],[6.9219346,44.8513329],[6.9221609,44.8515383],[6.922551,44.8519918],[6.9237993,44.8531696],[6.924727,44.8541099],[6.9257146,44.8552583],[6.9258924,44.8555217],[6.9264073,44.8566164],[6.9265893,44.8570747],[6.9267726,44.8577378],[6.926944,44.8581206],[6.9270567,44.8583216],[6.9278122,44.859366],[6.9291787,44.8614939],[6.9292904,44.8616219],[6.9302624,44.8625317],[6.9314128,44.8636183],[6.9314224,44.8644491],[6.931337,44.8646049],[6.9291679,44.8652407],[6.9278445,44.8657658],[6.924387,44.8666077],[6.9235926,44.8669308],[6.922647,44.8671747],[6.9204575,44.8680305],[6.9198814,44.8682226],[6.9194652,44.8682555],[6.9190627,44.8682392],[6.9188029,44.8682029],[6.9185172,44.8682382],[6.9183718,44.8683211],[6.918225,44.8684444],[6.9179983,44.8688049],[6.9172366,44.8698758],[6.9166943,44.870433],[6.9160929,44.8709936],[6.9154027,44.8713951],[6.914934,44.8715576],[6.9128707,44.87188],[6.9118581,44.8719965],[6.9114482,44.8721825],[6.9110586,44.8724635],[6.9108077,44.872837],[6.9105457,44.8732012],[6.9101625,44.8739504],[6.9100943,44.8741967],[6.9099449,44.8747161],[6.9097932,44.8749834],[6.909581,44.875272],[6.9089741,44.8756525],[6.9087065,44.8758322],[6.9085119,44.8759726],[6.9083073,44.8760499],[6.9079875,44.876044],[6.9075951,44.8760638],[6.9070519,44.8759954],[6.9066536,44.8758621],[6.9063225,44.875829],[6.9057903,44.8757877],[6.9053507,44.8758111],[6.904907,44.875947],[6.9044181,44.8760191],[6.9035739,44.8760711],[6.9030987,44.8760939],[6.9028465,44.8761748],[6.9022768,44.8765109],[6.9019639,44.8766402],[6.9014024,44.8767513],[6.9007368,44.8767886],[6.9000807,44.8768891],[6.8996142,44.8769975],[6.89911,44.8771548],[6.8984457,44.8774801],[6.8981664,44.877664],[6.8975426,44.8781837],[6.8968913,44.8788018],[6.8951889,44.8799497],[6.8944358,44.880755],[6.8941871,44.8810655],[6.8938089,44.8816796],[6.8936662,44.8820146],[6.8932755,44.8823224],[6.8921993,44.8828832],[6.8913832,44.8834623],[6.8906099,44.8838441],[6.8902106,44.8843858],[6.8897118,44.8847277],[6.8888756,44.8855314],[6.8864655,44.8872017],[6.885412,44.8877853],[6.8845701,44.8880938],[6.883253,44.8884204],[6.8824727,44.888667],[6.8821213,44.888872],[6.8798793,44.8904823],[6.8791034,44.8909315],[6.8787616,44.8911952],[6.8781347,44.8921108],[6.8778895,44.8923222],[6.8775969,44.8928524],[6.8774135,44.8933306],[6.8772237,44.8939707],[6.8770897,44.8943868],[6.876955,44.8944969],[6.8766807,44.8945412],[6.8743045,44.8946276],[6.8734869,44.895238],[6.8719704,44.8967518],[6.8718979,44.8968242],[6.8717235,44.897046],[6.8715711,44.8973132],[6.8712603,44.8977035],[6.8705744,44.8979608],[6.8701872,44.8981561],[6.869324,44.8987251],[6.8686539,44.8991942],[6.8685293,44.8993539],[6.8684956,44.8996234],[6.8683838,44.8997563],[6.8678495,44.9000884],[6.8668949,44.9008763],[6.866547,44.9009733],[6.8658056,44.9014545],[6.8650385,44.9022999],[6.8640334,44.9034783],[6.8639657,44.9037021],[6.8639083,44.9042907],[6.8637677,44.9052107],[6.8633106,44.9069711],[6.8631555,44.9076433],[6.86319,44.9079815],[6.8634121,44.9083998],[6.863501,44.9085635],[6.8633745,44.9087727],[6.8634153,44.9089535],[6.8632141,44.9092558],[6.8634215,44.9094262],[6.8635086,44.9096394],[6.8634343,44.9100431],[6.8637027,44.9107998],[6.863744,44.9109671],[6.8634446,44.9113665],[6.8630301,44.9119754],[6.8629654,44.9130905],[6.8627485,44.9144547],[6.862445,44.9149531],[6.861156,44.9161037],[6.8600812,44.9172403],[6.8597341,44.9176434],[6.8581771,44.9196081],[6.858025,44.9198664],[6.8576927,44.9205083],[6.8569504,44.9213135],[6.8562689,44.9220839],[6.8552542,44.9238337],[6.8550143,44.9238967],[6.8546806,44.9239355],[6.8524242,44.9239515],[6.8497319,44.9232527],[6.8493194,44.9231774],[6.8480505,44.92314],[6.8472291,44.9228815],[6.8465761,44.9228827],[6.8461129,44.9228919],[6.8457172,44.9230015],[6.8452975,44.9231061],[6.8445001,44.9231675],[6.8439148,44.9232645],[6.8434593,44.9233729],[6.843037,44.9235585],[6.8427003,44.9236782],[6.8424741,44.9236919],[6.8414663,44.9233443],[6.8411233,44.9233063],[6.8408122,44.9233769],[6.8405,44.9234655],[6.8398223,44.9238083],[6.8395531,44.9240282],[6.8393471,44.9241369],[6.8391923,44.9241474],[6.8387855,44.9242342],[6.8379783,44.9245475],[6.835302,44.925325],[6.8323182,44.9263801],[6.8307216,44.9271554],[6.8306323,44.9285806],[6.8306448,44.9298276],[6.8307573,44.9309415],[6.8310663,44.9318835],[6.8311716,44.9322321],[6.831191,44.9323495],[6.8311269,44.9324743],[6.8310038,44.932598],[6.8309258,44.9327765],[6.8309329,44.9329027],[6.8309997,44.933021],[6.8310879,44.9331937],[6.8311547,44.933312],[6.8311157,44.9334013],[6.8309964,44.933426],[6.8308169,44.9334586],[6.8306161,44.9334278],[6.8303248,44.9332872],[6.8300795,44.9331746],[6.8299756,44.933096],[6.8298604,44.9329994],[6.8297093,44.93292],[6.8295312,44.9329166],[6.8293978,44.9329906],[6.8292977,44.9331237],[6.8292811,44.9332494],[6.8293547,44.9333453],[6.8295616,44.9333717],[6.8298531,44.9335078],[6.8299703,44.9335506],[6.8299974,44.9336186],[6.8297587,44.9338166],[6.8283507,44.9335783],[6.8282959,44.9337393],[6.8281598,44.9342408],[6.8280721,44.9344957],[6.8274848,44.9345475],[6.8270772,44.9344857],[6.8258493,44.9344488],[6.8256258,44.9344221],[6.8254313,44.9343689],[6.826595,44.9367901],[6.8270122,44.9376892],[6.8272068,44.9382015],[6.8273872,44.938448],[6.8274436,44.9385256],[6.8274058,44.9385834],[6.8235953,44.9401221],[6.823461,44.9402276],[6.8234228,44.9402944],[6.8233817,44.9407527],[6.8245924,44.9407668],[6.8247681,44.9408241],[6.8251074,44.9409656],[6.8254956,44.9410585],[6.8273992,44.9412793],[6.82763,44.9413332],[6.8284742,44.9417409],[6.8286957,44.9418531],[6.8288212,44.9419905],[6.8289985,44.9423225],[6.8291805,44.9425375],[6.8293542,44.9426578],[6.8295412,44.9427289],[6.8303644,44.9429471],[6.8313621,44.9432541],[6.8316568,44.9433182],[6.8331486,44.9434321],[6.8333234,44.9441555],[6.8333629,44.9443678],[6.8333419,44.9446105],[6.8333419,44.9449255],[6.8334043,44.9451608],[6.8335733,44.945407],[6.8336849,44.9455892],[6.8337511,44.9457255],[6.8337816,44.9458611],[6.8338415,44.9466274],[6.83388,44.9469747],[6.8339457,44.947282],[6.83403,44.9474186],[6.8341368,44.9475917],[6.8341648,44.9478263],[6.834198,44.9482185],[6.8344771,44.9490564],[6.8345235,44.9491068],[6.8345661,44.9493957],[6.8346065,44.9498916],[6.8347868,44.9503856],[6.8347938,44.9505883],[6.8345878,44.9507779],[6.8342268,44.9508746],[6.8336148,44.950989],[6.8335958,44.9517898],[6.8337843,44.9518654],[6.8340717,44.9519654],[6.8344068,44.9520617],[6.8346069,44.9521331],[6.8347638,44.9523656],[6.8348772,44.9525838],[6.8350085,44.9528113],[6.8351443,44.9529174],[6.835629,44.9532507],[6.8358943,44.9535483],[6.8361406,44.9539535],[6.8366943,44.9545987],[6.8369992,44.955014],[6.8371688,44.9554988],[6.8373568,44.9559885],[6.8374513,44.9562153],[6.8377126,44.9566209],[6.8378318,44.9568752],[6.8378846,44.9571372],[6.8380449,44.9574778],[6.8381341,44.9577496],[6.8382293,44.9578639],[6.8383659,44.957961],[6.8385104,44.9580268],[6.8387641,44.9580451],[6.8389479,44.9580576],[6.8392034,44.9581209],[6.8393817,44.9581738],[6.8394881,44.9581893],[6.8396178,44.9581648],[6.8399751,44.958167],[6.8407016,44.9582438],[6.8421715,44.9583391],[6.8439813,44.9584993],[6.844407,44.9585479],[6.8445024,44.9587522],[6.8445957,44.9589475],[6.8446938,44.9591519],[6.8448083,44.9594376],[6.844851,44.9599696],[6.8449425,44.9604799],[6.8449613,44.9606648],[6.8449483,44.9611056],[6.844926,44.9615103],[6.8450011,44.9620563],[6.845132,44.9624954],[6.84545,44.962956],[6.8457774,44.9633673],[6.8460049,44.9635876],[6.8463935,44.9638335],[6.8467139,44.9640286],[6.8471066,44.9641755],[6.8477072,44.9645604],[6.8481155,44.9648742],[6.8485083,44.9653047],[6.8486379,44.9653881],[6.8489005,44.9654561],[6.8491032,44.9654599],[6.8495415,44.9654592],[6.8498437,44.9655594],[6.8504764,44.9656793],[6.8508088,44.9656586],[6.8513843,44.9659305],[6.8518023,44.9660823],[6.8521572,44.966053],[6.8523945,44.966107],[6.8528251,44.9663131],[6.8530496,44.9665199],[6.8533181,44.9667275],[6.853596,44.9668813],[6.8537133,44.967095],[6.8538685,44.9671834],[6.8540077,44.9673076],[6.8541746,44.9673692],[6.8543355,44.9674128],[6.8544797,44.9674875],[6.8546003,44.9676203],[6.8547753,44.9676686],[6.8551577,44.9676893],[6.8558054,44.9677059],[6.8557435,44.9678893],[6.8557368,44.9680692],[6.8556359,44.9682024],[6.8554345,44.9683651],[6.8550464,44.9688889],[6.8549571,44.9691168],[6.8546666,44.9694984],[6.8544285,44.9699531],[6.854344,44.970136],[6.8543301,44.9704148],[6.8543163,44.9707836],[6.8543597,44.9709059],[6.8543084,44.970995],[6.8542903,44.9710892],[6.8543796,44.9713609],[6.854527,44.9717553],[6.8546653,44.9720954],[6.8547415,44.9724209],[6.8547526,44.9726237],[6.8548702,44.9728284],[6.8551749,44.9732528],[6.8551701,44.9733832],[6.8553467,44.9736836],[6.855701,44.9741628],[6.8563329,44.9747103],[6.8568601,44.9749948],[6.8577301,44.9753757],[6.8588324,44.9760535],[6.8600269,44.976706],[6.8600854,44.9768692],[6.8602897,44.9770125],[6.860634,44.977325],[6.8608105,44.9776839],[6.8609195,44.9780235],[6.8612487,44.9786463],[6.8614133,44.9793245],[6.8617236,44.9798165],[6.8624335,44.9806804],[6.8633186,44.9817457],[6.8641064,44.9827957],[6.8648372,44.9837276],[6.8669305,44.9842933],[6.8680064,44.984966],[6.8686326,44.9853513],[6.8682396,44.9864467],[6.8677718,44.9877297],[6.8675828,44.9881673],[6.8669317,44.9881281],[6.8659517,44.9880558],[6.8648466,44.9879586],[6.8637883,44.9878803],[6.8630725,44.9878444],[6.8624278,44.9878053],[6.8612455,44.9877157],[6.8578049,44.9874531],[6.8570583,44.9873941],[6.8564949,44.987208],[6.8557946,44.9869473],[6.8554846,44.9868739],[6.8549556,44.987026],[6.8545677,44.9870232],[6.853912,44.9868759],[6.8535441,44.986887],[6.8530483,44.9869902],[6.852113,44.9872291],[6.8517698,44.9872902],[6.8512289,44.987253],[6.851124,44.98726],[6.8507833,44.9872761],[6.8503361,44.9873082],[6.8496858,44.9873364],[6.8488382,44.98737],[6.8484629,44.9874619],[6.8480886,44.9875179],[6.8478144,44.9875127],[6.8476793,44.9874472],[6.8475792,44.9873913],[6.8474256,44.9873749],[6.8472069,44.9875103],[6.8469666,44.9875643],[6.8464922,44.9875193],[6.8452611,44.9874736],[6.844933,44.9876069],[6.8446335,44.9875697],[6.8439699,44.9875392],[6.8434594,44.9876106],[6.8431169,44.9878021],[6.8426806,44.9880505],[6.8422102,44.9881856],[6.8417756,44.9883889],[6.8412458,44.9885949],[6.8403359,44.9890098],[6.8394881,44.9896689],[6.838814,44.9900342],[6.8384128,44.9902247],[6.8377507,44.9905722],[6.8376537,44.9906874],[6.8376332,44.9909256],[6.8375253,44.9910225],[6.8372553,44.9911075],[6.8368927,44.9911996],[6.8366207,44.9913475],[6.8364194,44.9914607],[6.8355865,44.992039],[6.8341679,44.9930833],[6.8322493,44.9944872],[6.830568,44.995432],[6.8291396,44.9961115],[6.8282102,44.9964809],[6.8275484,44.9968193],[6.8271037,44.9969324],[6.8264409,44.9969918],[6.8258458,44.9970975],[6.824897,44.9973585],[6.8245778,44.9975279],[6.8242665,44.997792],[6.8235071,44.9982547],[6.8222413,44.9986266],[6.8204283,44.9990646],[6.8196162,44.9993912],[6.8189996,44.9997575],[6.8186613,45.0001156],[6.818344,45.0008387],[6.8180583,45.0013463],[6.8153761,45.0033024],[6.8148876,45.003041],[6.8145554,45.0029356],[6.8140607,45.0028361],[6.813484,45.0027576],[6.8131726,45.0027201],[6.8129997,45.0026898],[6.8127832,45.0025956],[6.8125574,45.0024338],[6.8124352,45.0023009],[6.8124037,45.0022103],[6.8123839,45.0021289],[6.8123191,45.0019971],[6.8120971,45.0017453],[6.8118032,45.0015506],[6.8116231,45.0014077],[6.811354,45.0011639],[6.8111753,45.000994],[6.8110147,45.0009414],[6.8108524,45.0009473],[6.8107006,45.0009759],[6.8105449,45.0011079],[6.8098412,45.0016255],[6.8089295,45.0024407],[6.8078556,45.0035453],[6.8074923,45.0033403],[6.807049,45.0031112],[6.8066301,45.0028556],[6.8064277,45.0026942],[6.8062171,45.0024381],[6.8061115,45.0021705],[6.8061088,45.0019409],[6.8061317,45.0016398],[6.8060002,45.0014392],[6.8058334,45.0012605],[6.8056291,45.0011395],[6.8054299,45.0011942],[6.8050825,45.0014981],[6.8043234,45.0022487],[6.8037476,45.0030613],[6.8034026,45.0035992],[6.8030857,45.0040072],[6.8025326,45.0048247],[6.8021688,45.0052453],[6.8015809,45.0057696],[6.801325,45.0060933],[6.8011469,45.0065084],[6.8009897,45.0072796],[6.8007927,45.0081894],[6.8007609,45.0087199],[6.8008394,45.0090815],[6.8009603,45.0095609],[6.8011268,45.0103608],[6.8011238,45.0107388],[6.7994078,45.0113494],[6.798309,45.0118953],[6.7977508,45.0122697],[6.7972263,45.0126216],[6.7961938,45.0132363],[6.7937926,45.0144817],[6.7933921,45.0141328],[6.7928839,45.0136899],[6.7926479,45.0134963],[6.7918955,45.0131667],[6.7914414,45.0129194],[6.7910556,45.0127004],[6.7909092,45.0125895],[6.7907888,45.0123982],[6.7906283,45.0120575],[6.7905417,45.0118938],[6.790362,45.0117418],[6.7899064,45.0115349],[6.7895879,45.0113712],[6.7893519,45.0111866],[6.7887441,45.0110083],[6.78791,45.0106906],[6.7874089,45.0104944],[6.7868939,45.0102928],[6.785837,45.0100478],[6.7840329,45.0096297],[6.7838533,45.0095711],[6.7836663,45.00951],[6.7826548,45.0089818],[6.7820635,45.0086867],[6.7816389,45.0085795],[6.7810841,45.0082311],[6.7807331,45.0080172],[6.7804393,45.0078225],[6.7800051,45.0076565],[6.7795224,45.0075481],[6.7788178,45.0074849],[6.7781442,45.0075213],[6.7779933,45.0075273],[6.7777983,45.0074741],[6.7769692,45.0070303],[6.7766952,45.0069583],[6.7763035,45.0068553],[6.7756674,45.0068249],[6.7748073,45.0068757],[6.7745771,45.0068397],[6.7740501,45.0066764],[6.7731317,45.0064424],[6.7724512,45.0063616],[6.7719543,45.0063204],[6.770587,45.0063027],[6.7702207,45.0061875],[6.7689995,45.0061861],[6.7682615,45.0061853],[6.7679525,45.0060847],[6.7675032,45.0060129],[6.7667875,45.0059404],[6.7663719,45.0058917],[6.7661049,45.0059045],[6.7658343,45.0060117],[6.7655256,45.0061992],[6.7644419,45.0066371],[6.7642788,45.0066609],[6.7639515,45.0067265],[6.7631958,45.0070898],[6.7627815,45.0073022],[6.7618771,45.0076041],[6.7612672,45.0080917],[6.7609362,45.0082518],[6.759843,45.0086354],[6.7593335,45.0086254],[6.7582162,45.0084459],[6.7574892,45.0086522],[6.7571295,45.0086631],[6.7477463,45.006873],[6.7479965,45.006472],[6.7480593,45.0062836],[6.7482338,45.0057874],[6.748244,45.0055266],[6.7483067,45.0052217],[6.7486117,45.0048857],[6.749265,45.0044035],[6.7499335,45.0038585],[6.7501258,45.0034843],[6.7502181,45.0024239],[6.7504643,45.0007229],[6.7504723,45.0006195],[6.7504861,45.0004397],[6.7504202,45.0001774],[6.7505065,44.999594],[6.7507199,44.9990041],[6.7511203,44.9984988],[6.7514323,44.9979829],[6.7513094,44.9975574],[6.7509749,44.9967046],[6.7506379,44.9962389],[6.7503524,44.9961072],[6.7497779,44.9958438],[6.7482158,44.995561],[6.7464502,44.9952921],[6.7444896,44.9951453],[6.7428529,44.9948249],[6.7405553,44.9942123],[6.7388021,44.9936285],[6.7374859,44.9935484],[6.7373504,44.9931227]]]}}]}