{"type":"FeatureCollection","features":[{"type":"Feature","properties":{"name":"Claviere","osm_id":43802,"source":"OpenStreetMap Nominatim"},"geometry":{"type":"MultiPolygon","coordinates":[[[[6.743659,44.936114],[6.7439657,44.9360142],[6.744234,44.935951],[6.744581,44.935854],[6.74461,44.935824],[6.7446624,44.9357772],[6.744696,44.935743],[6.744734,44.935708],[6.744775,44.935671],[6.744801,44.935648],[6.744829,44.935623],[6.744924,44.935654],[6.744962,44.935665],[6.745103,44.935708],[6.745133,44.935718],[6.745225,44.935745],[6.745382,44.935793],[6.745401,44.935799],[6.745456,44.935815],[6.745556,44.935846],[6.745756,44.935907],[6.745812,44.935924],[6.74592,44.935957],[6.746117,44.936018],[6.746273,44.936064],[6.7463018,44.9360688],[6.746321,44.936072],[6.746349,44.936077],[6.746424,44.936091],[6.746452,44.936095],[6.746492,44.936103],[6.746524,44.936106],[6.746578,44.936113],[6.746632,44.936123],[6.74677,44.936149],[6.746773,44.93615],[6.746887,44.936166],[6.746903,44.936169],[6.746926,44.936174],[6.746953,44.936179],[6.747167,44.936162],[6.747204,44.936159],[6.7472698,44.9361307],[6.74743,44.9361135],[6.7475161,44.9360947],[6.7476098,44.9360857],[6.7476975,44.9360887],[6.7477569,44.9360844],[6.7478219,44.9360834],[6.7478914,44.9360829],[6.7479358,44.936092],[6.747985,44.936102],[6.748058,44.936146],[6.748173,44.936214],[6.74834,44.936314],[6.748496,44.936406],[6.7486116,44.936474],[6.748649,44.936496],[6.748719,44.936537],[6.748737,44.936549],[6.748816,44.936596],[6.748967,44.936685],[6.748987,44.936694],[6.749009,44.936668],[6.749049,44.936619],[6.749065,44.9366],[6.7491651,44.9364771],[6.749179,44.93646],[6.74925,44.936373],[6.749257,44.936365],[6.749347,44.936395],[6.74941,44.936417],[6.749464,44.936435],[6.749487,44.936442],[6.749513,44.936452],[6.749536,44.936463],[6.749727,44.936593],[6.749724,44.936607],[6.749825,44.936669],[6.750008,44.936877],[6.750216,44.936983],[6.750411,44.937009],[6.75053,44.937144],[6.750676,44.937167],[6.750727,44.937222],[6.750814,44.937253],[6.750899,44.937289],[6.750979,44.937328],[6.750987,44.937331],[6.75101,44.937366],[6.751013,44.937372],[6.751078,44.937494],[6.751295,44.937665],[6.751538,44.937843],[6.75166,44.937882],[6.751775,44.937966],[6.75194,44.938035],[6.751966,44.938131],[6.752081,44.938063],[6.752059,44.938041],[6.752126,44.938003],[6.752157,44.938036],[6.752194,44.938039],[6.752378,44.938012],[6.752543,44.93807],[6.752758,44.93808],[6.753013,44.938097],[6.753602,44.938035],[6.753938,44.938083],[6.754215,44.93807],[6.7542194,44.9379815],[6.754221,44.93795],[6.754253,44.937865],[6.754332,44.937813],[6.754369,44.937762],[6.754415,44.937716],[6.754521,44.937711],[6.754556,44.937693],[6.754734,44.93773],[6.754996,44.937748],[6.75542,44.937752],[6.755593,44.937757],[6.755904,44.937722],[6.756258,44.93759],[6.756446,44.937493],[6.756614,44.937399],[6.756829,44.937374],[6.75695,44.937383],[6.757215,44.937357],[6.757465,44.937329],[6.757673,44.937231],[6.7576852,44.9372122],[6.75776,44.937097],[6.7579,44.936874],[6.757922,44.93683],[6.758057,44.936728],[6.758096,44.936618],[6.758157,44.936456],[6.758216,44.936354],[6.758488,44.93611],[6.758649,44.935965],[6.758762,44.935847],[6.759098,44.935696],[6.759185,44.935659],[6.759447,44.93555],[6.759616,44.9359812],[6.7595732,44.9362864],[6.7593364,44.9364483],[6.7590132,44.9365815],[6.7586981,44.9370344],[6.7585288,44.9375577],[6.7585143,44.937931],[6.7584365,44.9383526],[6.7581677,44.9387974],[6.7578144,44.9394476],[6.7578164,44.9397942],[6.758197,44.9404138],[6.7586489,44.9406702],[6.7588122,44.9408692],[6.7590236,44.9409431],[6.7591763,44.9410001],[6.7592989,44.9410656],[6.7594477,44.9411495],[6.75958,44.9412421],[6.7596564,44.9413246],[6.7597313,44.9414251],[6.759811,44.9415257],[6.7598684,44.9416169],[6.7599104,44.9417077],[6.7599381,44.9417803],[6.7599488,44.9418615],[6.7599524,44.9419336],[6.7599718,44.9419992],[6.7605023,44.9422054],[6.7613678,44.9423664],[6.7613578,44.9431539],[6.7613804,44.943825],[6.7614029,44.9445006],[6.7613994,44.9451081],[6.7611775,44.9452838],[6.761054,44.9454263],[6.7607478,44.9457795],[6.7599365,44.9465963],[6.7593984,44.9471078],[6.758538,44.948071],[6.758002,44.9478],[6.756467,44.947019],[6.7563616,44.9465122],[6.7562813,44.9458265],[6.7540088,44.9459586],[6.7527896,44.9460162],[6.752898,44.943824],[6.7532,44.94311],[6.7512777,44.9415909],[6.750611,44.941064],[6.7467955,44.9391487],[6.746749,44.939109],[6.746389,44.938656],[6.746274,44.938512],[6.746267,44.9385],[6.746168,44.938348],[6.746104,44.93825],[6.746026,44.93813],[6.745775,44.937746],[6.74573,44.93768],[6.745688,44.937617],[6.745641,44.937545],[6.745617,44.937511],[6.745572,44.937442],[6.745106,44.937194],[6.744986,44.937175],[6.744877,44.937188],[6.744768,44.937199],[6.744659,44.937207],[6.744644,44.937208],[6.744114,44.93724],[6.743808,44.936763],[6.743786,44.936662],[6.743698,44.936286],[6.743666,44.936145],[6.743663,44.936132],[6.743659,44.936114]]],[[[6.748482,44.922126],[6.748755,44.921653],[6.748878,44.921396],[6.748929,44.921239],[6.749033,44.920949],[6.749149,44.920662],[6.749182,44.920594],[6.749232,44.920517],[6.749295,44.920445],[6.749323,44.920416],[6.74938,44.920372],[6.749446,44.920335],[6.749519,44.920305],[6.750128,44.920106],[6.750624,44.919972],[6.750657,44.919965],[6.750834,44.919921],[6.751007,44.919869],[6.751086,44.91984],[6.75127,44.919779],[6.751459,44.919728],[6.751595,44.919688],[6.751773,44.919628],[6.751944,44.919559],[6.752152,44.919464],[6.752509,44.919292],[6.752519,44.919286],[6.75259,44.919239],[6.752652,44.919185],[6.752703,44.919126],[6.752714,44.919099],[6.752745,44.919006],[6.752763,44.918911],[6.752776,44.918845],[6.752789,44.918732],[6.752789,44.91862],[6.752782,44.918242],[6.752766,44.918163],[6.752733,44.918054],[6.752617,44.917635],[6.752611,44.91762],[6.752581,44.917568],[6.752539,44.917519],[6.752488,44.917476],[6.752427,44.91744],[6.75207,44.917251],[6.752127,44.917096],[6.752128,44.917094],[6.752134,44.917059],[6.752128,44.917024],[6.752109,44.916991],[6.752,44.916906],[6.751953,44.916871],[6.751891,44.916816],[6.751841,44.916756],[6.751755,44.916629],[6.751669,44.916483],[6.751551,44.916275],[6.750976,44.915337],[6.750748,44.914745],[6.750541,44.914492],[6.750305,44.914274],[6.7516785,44.9142115],[6.7523484,44.9141301],[6.7529708,44.9141604],[6.7536394,44.9141105],[6.7540501,44.9140556],[6.7542483,44.913938],[6.7544691,44.9137893],[6.754733,44.9136414],[6.7551263,44.9134826],[6.7555826,44.9133566],[6.7563151,44.9133215],[6.7572813,44.9133585],[6.7580089,44.9134493],[6.7585616,44.9136132],[6.7592005,44.9137787],[6.7594319,44.9139048],[6.7594911,44.914041],[6.7596561,44.9142288],[6.7599294,44.9143872],[6.76014,44.9144993],[6.7602834,44.9146822],[6.7604082,44.9147927],[6.7606643,44.9148427],[6.7610891,44.9149771],[6.7613857,44.9150864],[6.761596,44.9152165],[6.7617826,44.9153867],[6.7619044,44.9155737],[6.7619619,44.9157548],[6.7620837,44.9159418],[6.7623665,44.9164199],[6.7626104,44.9167758],[6.7629587,44.9172282],[6.7633328,44.9175551],[6.7639239,44.9178412],[6.7646888,44.9180858],[6.7652852,44.918237],[6.7655161,44.9183765],[6.7656257,44.9185317],[6.7651125,44.9193903],[6.7649788,44.9199593],[6.7648806,44.9207676],[6.7649167,44.9212066],[6.7647379,44.921557],[6.764723,44.9219393],[6.7648233,44.9222428],[6.7647706,44.9224488],[6.7645113,44.9227948],[6.7643153,44.9232321],[6.7642642,44.9239782],[6.7641852,44.9242783],[6.7639731,44.9245622],[6.763658,44.9251906],[6.7631022,44.9256883],[6.7628245,44.9259349],[6.7625632,44.9263304],[6.7623851,44.9268805],[6.762122,44.927321],[6.7620459,44.927558],[6.7615323,44.9281196],[6.7612748,44.9284161],[6.7611398,44.9290166],[6.7610982,44.9295064],[6.7612578,44.9300046],[6.7614675,44.9303553],[6.7622205,44.9311172],[6.7626523,44.9315218],[6.7628625,44.931859],[6.7628732,44.9321653],[6.7627881,44.9326227],[6.7625986,44.9329025],[6.7619896,44.9330346],[6.7614238,44.9332126],[6.7610621,44.933318],[6.7607666,44.9335526],[6.7607618,44.9335067],[6.7607522,44.9334817],[6.7607243,44.9334537],[6.760707,44.933423],[6.760671,44.933366],[6.760649,44.933258],[6.760674,44.933101],[6.760822,44.932822],[6.760809,44.93277],[6.760647,44.932653],[6.760537,44.932284],[6.760462,44.932171],[6.760273,44.93189],[6.760325,44.93186],[6.760475,44.931857],[6.760521,44.931833],[6.760632,44.931722],[6.760859,44.931497],[6.760846,44.931325],[6.760998,44.931065],[6.760938,44.930823],[6.760754,44.930588],[6.760715,44.930571],[6.760664,44.930572],[6.760521,44.930632],[6.7603,44.930705],[6.760066,44.930744],[6.759348,44.930719],[6.7589768,44.9308936],[6.758891,44.930934],[6.758615,44.931047],[6.758399,44.931113],[6.7583159,44.9311307],[6.758178,44.93116],[6.757759,44.931174],[6.757312,44.931113],[6.757235,44.931109],[6.757187,44.931131],[6.756996,44.931287],[6.756695,44.931522],[6.756438,44.931703],[6.75625,44.931802],[6.755343,44.932047],[6.755218,44.932073],[6.754408,44.932063],[6.754132,44.932059],[6.753991,44.932032],[6.753998,44.93202],[6.754159,44.931744],[6.754161,44.931738],[6.75465,44.930163],[6.753248,44.927262],[6.751945,44.926261],[6.750016,44.924044],[6.748639,44.922365],[6.748482,44.922126]]]]}}]}