{"type":"FeatureCollection","features":[{"type":"Feature","properties":{"name":"Oulx","osm_id":43955,"source":"OpenStreetMap Nominatim"},"geometry":{"type":"Polygon","coordinates":[[[6.7034463,45.0288985],[6.7036605,45.0284122],[6.7039613,45.0280042],[6.7041972,45.0277298],[6.7045135,45.0273086],[6.7046433,45.0270682],[6.7048316,45.0264779],[6.7049976,45.0260761],[6.7050689,45.0257895],[6.7051497,45.0248909],[6.7052258,45.024861],[6.705318,45.0248088],[6.7058092,45.024139],[6.7063806,45.0233313],[6.7069623,45.0226499],[6.7072311,45.0222952],[6.7076214,45.0214029],[6.7077273,45.0211698],[6.7108725,45.0208689],[6.71514,45.0204697],[6.717748,45.0205445],[6.7198076,45.0213261],[6.720736,45.0218545],[6.7214656,45.0220138],[6.7219438,45.0219206],[6.7219698,45.0219152],[6.7226887,45.0220821],[6.7236864,45.0217863],[6.7244375,45.0217635],[6.7248088,45.0215937],[6.7258966,45.0215398],[6.7273468,45.0206624],[6.7278707,45.0203454],[6.7291528,45.0205085],[6.7313717,45.0196994],[6.7356599,45.0179498],[6.7372692,45.017858],[6.7391221,45.0184048],[6.7414503,45.0179937],[6.7427485,45.0172596],[6.7444672,45.0170761],[6.7457118,45.0172793],[6.7474069,45.017431],[6.7482652,45.0161652],[6.7457643,45.0124768],[6.7451732,45.0119884],[6.7449983,45.0111108],[6.7461624,45.0098251],[6.7466452,45.0087503],[6.7474498,45.0080039],[6.7477463,45.006873],[6.7571295,45.0086631],[6.7574892,45.0086522],[6.7582162,45.0084459],[6.7593335,45.0086254],[6.759843,45.0086354],[6.7609362,45.0082518],[6.7612672,45.0080917],[6.7618771,45.0076041],[6.7627815,45.0073022],[6.7631958,45.0070898],[6.7639515,45.0067265],[6.7642788,45.0066609],[6.7644419,45.0066371],[6.7655256,45.0061992],[6.7658343,45.0060117],[6.7661049,45.0059045],[6.7663719,45.0058917],[6.7667875,45.0059404],[6.7675032,45.0060129],[6.7679525,45.0060847],[6.7682615,45.0061853],[6.7689995,45.0061861],[6.7702207,45.0061875],[6.770587,45.0063027],[6.7719543,45.0063204],[6.7724512,45.0063616],[6.7731317,45.0064424],[6.7740501,45.0066764],[6.7745771,45.0068397],[6.7748073,45.0068757],[6.7756674,45.0068249],[6.7763035,45.0068553],[6.7766952,45.0069583],[6.7769692,45.0070303],[6.7777983,45.0074741],[6.7779933,45.0075273],[6.7781442,45.0075213],[6.7788178,45.0074849],[6.7795224,45.0075481],[6.7800051,45.0076565],[6.7804393,45.0078225],[6.7807331,45.0080172],[6.7810841,45.0082311],[6.7816389,45.0085795],[6.7820635,45.0086867],[6.7826548,45.0089818],[6.7836663,45.00951],[6.7838533,45.0095711],[6.7840329,45.0096297],[6.785837,45.0100478],[6.7868939,45.0102928],[6.7874089,45.0104944],[6.78791,45.0106906],[6.7887441,45.0110083],[6.7893519,45.0111866],[6.7895879,45.0113712],[6.7899064,45.0115349],[6.790362,45.0117418],[6.7905417,45.0118938],[6.7906283,45.0120575],[6.7907888,45.0123982],[6.7909092,45.0125895],[6.7910556,45.0127004],[6.7914414,45.0129194],[6.7918955,45.0131667],[6.7926479,45.0134963],[6.7928839,45.0136899],[6.7933921,45.0141328],[6.7937926,45.0144817],[6.7961938,45.0132363],[6.7972263,45.0126216],[6.7977508,45.0122697],[6.798309,45.0118953],[6.7994078,45.0113494],[6.8011238,45.0107388],[6.8011268,45.0103608],[6.8009603,45.0095609],[6.8008394,45.0090815],[6.8007609,45.0087199],[6.8007927,45.0081894],[6.8009897,45.0072796],[6.8011469,45.0065084],[6.801325,45.0060933],[6.8015809,45.0057696],[6.8021688,45.0052453],[6.8025326,45.0048247],[6.8030857,45.0040072],[6.8034026,45.0035992],[6.8037476,45.0030613],[6.8043234,45.0022487],[6.8050825,45.0014981],[6.8054299,45.0011942],[6.8056291,45.0011395],[6.8058334,45.0012605],[6.8060002,45.0014392],[6.8061317,45.0016398],[6.8061088,45.0019409],[6.8061115,45.0021705],[6.8062171,45.0024381],[6.8064277,45.0026942],[6.8066301,45.0028556],[6.807049,45.0031112],[6.8074923,45.0033403],[6.8078556,45.0035453],[6.8089295,45.0024407],[6.8098412,45.0016255],[6.8105449,45.0011079],[6.8107006,45.0009759],[6.8108524,45.0009473],[6.8110147,45.0009414],[6.8111753,45.000994],[6.811354,45.0011639],[6.8116231,45.0014077],[6.8118032,45.0015506],[6.8120971,45.0017453],[6.8123191,45.0019971],[6.8123839,45.0021289],[6.8124037,45.0022103],[6.8124352,45.0023009],[6.8125574,45.0024338],[6.8127832,45.0025956],[6.8129997,45.0026898],[6.8131726,45.0027201],[6.813484,45.0027576],[6.8140607,45.0028361],[6.8145554,45.0029356],[6.8148876,45.003041],[6.8153761,45.0033024],[6.8180583,45.0013463],[6.818344,45.0008387],[6.8186613,45.0001156],[6.8189996,44.9997575],[6.8196162,44.9993912],[6.8204283,44.9990646],[6.8222413,44.9986266],[6.8235071,44.9982547],[6.8242665,44.997792],[6.8245778,44.9975279],[6.824897,44.9973585],[6.8258458,44.9970975],[6.8264409,44.9969918],[6.8271037,44.9969324],[6.8275484,44.9968193],[6.8282102,44.9964809],[6.8291396,44.9961115],[6.830568,44.995432],[6.8322493,44.9944872],[6.8341679,44.9930833],[6.8355865,44.992039],[6.8364194,44.9914607],[6.8366207,44.9913475],[6.8368927,44.9911996],[6.8372553,44.9911075],[6.8375253,44.9910225],[6.8376332,44.9909256],[6.8376537,44.9906874],[6.8377507,44.9905722],[6.8384128,44.9902247],[6.838814,44.9900342],[6.8394881,44.9896689],[6.8403359,44.9890098],[6.8412458,44.9885949],[6.8417756,44.9883889],[6.8422102,44.9881856],[6.8426806,44.9880505],[6.8431169,44.9878021],[6.8434594,44.9876106],[6.8439699,44.9875392],[6.8446335,44.9875697],[6.844933,44.9876069],[6.8452611,44.9874736],[6.8464922,44.9875193],[6.8469666,44.9875643],[6.8472069,44.9875103],[6.8474256,44.9873749],[6.8475792,44.9873913],[6.8476793,44.9874472],[6.8478144,44.9875127],[6.8480886,44.9875179],[6.8484629,44.9874619],[6.8488382,44.98737],[6.8496858,44.9873364],[6.8503361,44.9873082],[6.8507833,44.9872761],[6.851124,44.98726],[6.8512289,44.987253],[6.8517698,44.9872902],[6.852113,44.9872291],[6.8530483,44.9869902],[6.8535441,44.986887],[6.853912,44.9868759],[6.8545677,44.9870232],[6.8549556,44.987026],[6.8554846,44.9868739],[6.8557946,44.9869473],[6.8564949,44.987208],[6.8570583,44.9873941],[6.8578049,44.9874531],[6.8612455,44.9877157],[6.8624278,44.9878053],[6.8630725,44.9878444],[6.8637883,44.9878803],[6.8648466,44.9879586],[6.8659517,44.9880558],[6.8669317,44.9881281],[6.8675828,44.9881673],[6.8682848,44.9882434],[6.8684875,44.9882607],[6.8687611,44.9886754],[6.8690532,44.9889329],[6.8692815,44.9891712],[6.8695286,44.9893604],[6.8700158,44.9901076],[6.8701491,44.9904477],[6.8702353,44.9907733],[6.8702788,44.9912468],[6.8703624,44.9917299],[6.8706809,44.992465],[6.8707184,44.9927358],[6.8707712,44.9929483],[6.8708893,44.993153],[6.8710147,44.9932994],[6.8701445,44.9938233],[6.869154,44.9943314],[6.8678688,44.994969],[6.8670193,44.9954258],[6.866976,44.9954585],[6.8663969,44.9958957],[6.8659654,44.9961532],[6.864916,44.9965702],[6.864151,44.9968214],[6.8636861,44.9969973],[6.8629595,44.9971097],[6.8624442,44.9973521],[6.8617252,44.9979553],[6.8611525,44.9983631],[6.8605303,44.998527],[6.8596639,44.9988168],[6.8593681,44.9989148],[6.8591694,44.9990641],[6.858721,44.9993617],[6.8580511,44.9995157],[6.8569236,44.9998006],[6.856381,44.999975],[6.8560725,45.0001582],[6.8558109,45.0003153],[6.8547007,45.0009831],[6.8545475,45.0010612],[6.8542982,45.0011241],[6.8540132,45.0012492],[6.85371,45.0014056],[6.8533619,45.0015205],[6.8531514,45.0016156],[6.8530353,45.0016765],[6.8528167,45.0019019],[6.8525164,45.0023418],[6.8518377,45.0027206],[6.851146,45.0030947],[6.850769,45.0033576],[6.8500639,45.0037314],[6.8493265,45.0041631],[6.848722,45.0045163],[6.8476678,45.0051176],[6.8467226,45.0056534],[6.8454286,45.0064166],[6.8451034,45.0073377],[6.8446203,45.0086518],[6.8445249,45.0089651],[6.8445475,45.009069],[6.8445531,45.0091952],[6.8444548,45.0094049],[6.8443399,45.0095287],[6.8442943,45.0096764],[6.8441895,45.0098904],[6.8440703,45.0101312],[6.8439735,45.0103095],[6.8439367,45.0104033],[6.8437787,45.0105128],[6.843625,45.0106044],[6.843495,45.0106875],[6.8432513,45.0106919],[6.8428867,45.0107075],[6.8424805,45.0107628],[6.8421389,45.0107879],[6.8418952,45.0107833],[6.841598,45.0107867],[6.8413661,45.0108273],[6.8411148,45.010845],[6.8407786,45.0108207],[6.8405204,45.0108428],[6.8402115,45.0108955],[6.8399286,45.0109531],[6.8397752,45.0109502],[6.8395717,45.0109419],[6.8393167,45.0108875],[6.8391607,45.0108621],[6.8390497,45.0108825],[6.8390217,45.011098],[6.8387629,45.0114937],[6.8383885,45.0119502],[6.8379682,45.0123788],[6.8376983,45.0128913],[6.8375554,45.0132307],[6.8375602,45.0137259],[6.8375982,45.0140416],[6.8376176,45.0146856],[6.8377428,45.0153542],[6.8379729,45.0158041],[6.8382765,45.016431],[6.8384731,45.0167093],[6.8390677,45.0171481],[6.8396369,45.0175595],[6.8397275,45.0176692],[6.8401861,45.018227],[6.8407723,45.0189852],[6.8411219,45.0193609],[6.8417729,45.0199043],[6.84183,45.0203375],[6.8418362,45.0205311],[6.8418478,45.0208464],[6.8416198,45.0219403],[6.841572,45.022169],[6.8414617,45.0226755],[6.8415259,45.0229198],[6.8418066,45.0232716],[6.8419304,45.023535],[6.8418861,45.0240068],[6.8419562,45.0240936],[6.8419691,45.0248996],[6.8420383,45.025549],[6.8421336,45.0261269],[6.8421794,45.0267759],[6.8421553,45.0273245],[6.842167,45.0274013],[6.8422169,45.0277308],[6.8422824,45.0285647],[6.8422679,45.028686],[6.8423381,45.0292139],[6.8423264,45.0295242],[6.8427285,45.0299414],[6.8430161,45.0301944],[6.8436446,45.0308049],[6.8437036,45.03086],[6.8438549,45.0309934],[6.8441967,45.0313239],[6.8444884,45.0315545],[6.8447318,45.0317481],[6.8448457,45.0320113],[6.8449307,45.0326746],[6.8449887,45.0329997],[6.8451029,45.0335195],[6.8453183,45.0341852],[6.8453957,45.0346187],[6.8454103,45.0350421],[6.8454148,45.0351772],[6.845456,45.0355065],[6.8455198,45.0357193],[6.8465496,45.0354687],[6.847346,45.0352226],[6.847897,45.035404],[6.8489488,45.035784],[6.8503091,45.0362642],[6.8508165,45.0363907],[6.8509967,45.0364751],[6.8511661,45.0365053],[6.8514038,45.0365053],[6.851658,45.0366046],[6.8522216,45.0357135],[6.8528173,45.0355642],[6.8529482,45.0355217],[6.8540692,45.0351557],[6.8545879,45.0349809],[6.8556472,45.0353834],[6.8563821,45.0356515],[6.8566485,45.0356722],[6.8570618,45.035527],[6.857418,45.0353581],[6.8585093,45.034798],[6.8589053,45.0345624],[6.8590697,45.0343989],[6.8591172,45.0342422],[6.8591371,45.0341571],[6.8593217,45.034003],[6.8592346,45.0336593],[6.8592704,45.0335385],[6.8593074,45.0334402],[6.859331,45.0333506],[6.8593372,45.0332697],[6.8592667,45.0331063],[6.8594883,45.0329845],[6.8597564,45.032868],[6.8600029,45.0327151],[6.8601347,45.032587],[6.8602125,45.0324669],[6.8602189,45.0323815],[6.8601989,45.0322911],[6.8602971,45.0322525],[6.8604776,45.0322513],[6.8608323,45.0321455],[6.8609482,45.0320891],[6.8610473,45.032028],[6.8611013,45.031921],[6.8611287,45.031728],[6.8611381,45.0316561],[6.8613617,45.0314803],[6.8615185,45.0313932],[6.8616648,45.0313194],[6.8618238,45.0312684],[6.8620303,45.0314658],[6.8624027,45.0317878],[6.8628629,45.0322555],[6.8632036,45.0324284],[6.8636503,45.0326438],[6.863779,45.0326823],[6.8640625,45.0326966],[6.8642736,45.0328535],[6.8643803,45.0329501],[6.864571,45.0329446],[6.8648668,45.0329907],[6.8653709,45.0331756],[6.8662795,45.0334492],[6.8665709,45.0333376],[6.8668228,45.0333918],[6.867108,45.0336267],[6.8673174,45.0338331],[6.8674261,45.0338532],[6.8676361,45.0338931],[6.8677536,45.0338683],[6.8680139,45.0338777],[6.8682383,45.0340439],[6.8685049,45.0342469],[6.8687278,45.0343546],[6.8689047,45.0344524],[6.8690102,45.0345804],[6.8690244,45.0347427],[6.8690425,45.0349726],[6.8690757,45.0350722],[6.869147,45.0351276],[6.8692761,45.035157],[6.8693545,45.0352062],[6.8694131,45.0352496],[6.8694567,45.0353359],[6.8694984,45.0354717],[6.8695024,45.0358993],[6.8695104,45.0363136],[6.8695749,45.0364678],[6.8697143,45.0366775],[6.8697751,45.0368361],[6.8697806,45.0371378],[6.8698077,45.0373048],[6.870036,45.0376421],[6.8702373,45.037862],[6.8703533,45.0379991],[6.8704499,45.0381],[6.870639,45.038135],[6.8712495,45.0382454],[6.8715492,45.0382735],[6.87248,45.0383179],[6.8728207,45.0383197],[6.8729834,45.0383407],[6.8732768,45.0384542],[6.8735707,45.0385407],[6.8738201,45.0385769],[6.8740495,45.0386081],[6.8742639,45.0385941],[6.8745046,45.0385851],[6.8746867,45.0385435],[6.8748315,45.0385102],[6.8749951,45.0385087],[6.8751748,45.0385301],[6.8754042,45.0385614],[6.8757922,45.0386361],[6.8760561,45.0386455],[6.876416,45.0386657],[6.8765565,45.0386638],[6.8768189,45.0386192],[6.8773174,45.0385069],[6.8776899,45.0384644],[6.8780904,45.0383863],[6.8785389,45.0382731],[6.8788176,45.0382378],[6.8790517,45.0382241],[6.8793197,45.0382111],[6.8796033,45.0381263],[6.8798114,45.0380987],[6.8799351,45.038101],[6.88007,45.038144],[6.8801416,45.0381498],[6.8804838,45.0381652],[6.8805474,45.038711],[6.8805365,45.0391564],[6.8805345,45.0392418],[6.8806812,45.0395146],[6.8810908,45.0400038],[6.882095,45.0397794],[6.8824905,45.0396517],[6.8823792,45.0394111],[6.8821976,45.0390747],[6.8821763,45.0389302],[6.882603,45.0387761],[6.8830825,45.0387265],[6.8830274,45.038865],[6.88303,45.0389776],[6.8830587,45.0391041],[6.8833246,45.0395007],[6.883647,45.0397317],[6.8837619,45.0398733],[6.8840542,45.0398337],[6.8841686,45.0398089],[6.8841446,45.0396419],[6.8841308,45.0394796],[6.8846065,45.0394479],[6.8849089,45.0389404],[6.8851278,45.0385349],[6.8853707,45.0381118],[6.8856545,45.0371178],[6.8858603,45.036334],[6.8859475,45.0361421],[6.8860718,45.0356763],[6.886149,45.0353897],[6.8865317,45.0351582],[6.8867753,45.0349984],[6.8879664,45.0342171],[6.8894631,45.0332185],[6.8909611,45.0321705],[6.8923239,45.031273],[6.8937466,45.0302865],[6.8954653,45.0291435],[6.8968731,45.0281928],[6.8981817,45.0273077],[6.8994964,45.0264272],[6.8997876,45.02623],[6.8998382,45.0261274],[6.9034228,45.0320175],[6.904372,45.032683],[6.9053431,45.0332185],[6.9063068,45.0334882],[6.907244,45.0335729],[6.9081932,45.0337838],[6.9102416,45.0342264],[6.9112332,45.0351268],[6.9124044,45.0361519],[6.9133481,45.0369748],[6.9142166,45.0375623],[6.9149014,45.0376603],[6.9153819,45.0378356],[6.9176943,45.0384224],[6.9151038,45.0390233],[6.9126604,45.0397258],[6.9104941,45.0406628],[6.9064739,45.0427091],[6.9033025,45.0444963],[6.9035121,45.0456568],[6.9034195,45.0458892],[6.9025703,45.0461616],[6.9019155,45.0461496],[6.901321,45.0463367],[6.9007674,45.0463265],[6.900633,45.0463241],[6.9002396,45.0465239],[6.8921119,45.0488271],[6.8910091,45.0491398],[6.8885483,45.0498414],[6.8872333,45.0505282],[6.8863396,45.0509933],[6.885333,45.0523429],[6.8843656,45.0530721],[6.8825085,45.0542484],[6.8816294,45.0548623],[6.8801315,45.0558742],[6.8790801,45.0565838],[6.8748752,45.0576623],[6.8728445,45.0583851],[6.8713181,45.0589283],[6.8686159,45.0567534],[6.8679754,45.0562374],[6.8657891,45.0545177],[6.8604343,45.0530987],[6.8559155,45.0517852],[6.8544361,45.0513164],[6.8542397,45.0512541],[6.8539208,45.0512481],[6.8510232,45.0541777],[6.8494605,45.0558676],[6.8481431,45.0574361],[6.8475033,45.0579956],[6.8469336,45.058615],[6.8461638,45.0597617],[6.8439258,45.062501],[6.8432399,45.0632448],[6.8429794,45.0635273],[6.8422091,45.0641159],[6.8415384,45.0643553],[6.8407922,45.0646787],[6.8381939,45.0660473],[6.8374859,45.0665155],[6.8373772,45.066725],[6.8374281,45.0669015],[6.8383892,45.0683104],[6.8385795,45.0686516],[6.8412823,45.0744009],[6.8411743,45.0745924],[6.8409503,45.0748042],[6.8402887,45.0753678],[6.8395835,45.0757595],[6.8392415,45.0760501],[6.8390257,45.0764241],[6.8388806,45.0768399],[6.8388753,45.0773574],[6.8391032,45.0799047],[6.8391151,45.0805675],[6.8391172,45.0806836],[6.8391099,45.080877],[6.8388448,45.0817992],[6.8385331,45.0826214],[6.8384583,45.0838353],[6.8383136,45.0846292],[6.8383005,45.0849755],[6.8383766,45.0852425],[6.8396157,45.0869223],[6.8408819,45.0888411],[6.8415489,45.090438],[6.8417753,45.0913019],[6.8418241,45.0923021],[6.8418105,45.0930445],[6.8412751,45.0942676],[6.8412264,45.0945997],[6.8413201,45.0955512],[6.8409442,45.0980735],[6.8410328,45.099547],[6.8409283,45.1000221],[6.8409109,45.1002918],[6.8409457,45.1005175],[6.8410273,45.1006406],[6.8411614,45.1009087],[6.8413216,45.1012403],[6.8414118,45.1015255],[6.8415536,45.1019558],[6.8420343,45.102577],[6.8428395,45.1037444],[6.8433216,45.1052883],[6.8435313,45.1054453],[6.8454132,45.106327],[6.8457794,45.10655],[6.8460023,45.1067477],[6.8463112,45.1073342],[6.8466416,45.1077365],[6.8471037,45.1080828],[6.8483294,45.108997],[6.8485087,45.1092029],[6.8486026,45.1093893],[6.8486193,45.1095156],[6.8487815,45.1107609],[6.8488036,45.1109323],[6.8489137,45.1110694],[6.8490969,45.1111719],[6.8499759,45.1115485],[6.8505701,45.1118253],[6.8507958,45.111951],[6.8508507,45.1120241],[6.8508612,45.1121233],[6.8506816,45.1123044],[6.8486798,45.1136575],[6.8483371,45.1137681],[6.8471687,45.1138856],[6.8460569,45.1138916],[6.8458655,45.113888],[6.8457096,45.1138491],[6.8453452,45.1137792],[6.8448404,45.1135941],[6.8438372,45.1130801],[6.8423052,45.1123355],[6.8392149,45.1108503],[6.8370654,45.1097968],[6.8349545,45.1087531],[6.8322265,45.1074546],[6.8315134,45.107099],[6.8306934,45.1067144],[6.8299951,45.106431],[6.8292894,45.1061116],[6.8283631,45.1056934],[6.8275624,45.1052821],[6.8261739,45.104513],[6.8231694,45.1028309],[6.8220539,45.1021975],[6.8197079,45.100897],[6.8186273,45.1002868],[6.8181273,45.0999936],[6.8177091,45.0996706],[6.8169882,45.0990447],[6.816361,45.0985466],[6.8154486,45.0977775],[6.814917,45.0973668],[6.8144746,45.0969712],[6.8139787,45.0965611],[6.8133002,45.0960035],[6.812248,45.0951327],[6.8117434,45.0947225],[6.8109242,45.0940856],[6.8104203,45.0936574],[6.8099027,45.0933594],[6.8090751,45.0929429],[6.8085309,45.0926355],[6.8079142,45.0923446],[6.806827,45.0919141],[6.8057495,45.0914703],[6.8055107,45.0913712],[6.8046989,45.0910315],[6.8036479,45.0906017],[6.8028448,45.0902622],[6.8018378,45.0898557],[6.8009556,45.0894697],[6.8001345,45.0891253],[6.7993843,45.0888048],[6.7990343,45.088582],[6.7985422,45.0883475],[6.7980042,45.088076],[6.7976077,45.0878838],[6.7972725,45.0877424],[6.7967925,45.0876251],[6.7959812,45.0874924],[6.7940723,45.087226],[6.7934649,45.0871602],[6.7931792,45.0871232],[6.7921222,45.0870802],[6.7911203,45.0870068],[6.7904308,45.08698],[6.7898305,45.0869684],[6.7891109,45.087022],[6.7878259,45.0870736],[6.786856,45.0871088],[6.7854997,45.0871545],[6.7833471,45.0872657],[6.7814469,45.0873414],[6.7804671,45.0873943],[6.7794885,45.0874203],[6.7792871,45.0874119],[6.7791408,45.087364],[6.7790068,45.0872354],[6.7789824,45.0870549],[6.7790265,45.0868397],[6.7790278,45.0866372],[6.778906,45.0865988],[6.7787773,45.0865603],[6.7785624,45.0864391],[6.7781989,45.086207],[6.7777902,45.0859245],[6.7775115,45.085685],[6.7771322,45.0852365],[6.7768738,45.0848669],[6.7767927,45.0847168],[6.7767731,45.0845859],[6.776754,45.0841174],[6.7766826,45.0830809],[6.7765345,45.0821103],[6.7763878,45.0810902],[6.7763405,45.0810353],[6.7762411,45.0810334],[6.7756555,45.0811165],[6.7747817,45.081266],[6.7741462,45.0813436],[6.7737596,45.0813991],[6.7732149,45.0813795],[6.7723484,45.08134],[6.7716823,45.081255],[6.7706955,45.0811142],[6.7692793,45.080551],[6.7683624,45.080218],[6.7675803,45.0799191],[6.7669819,45.0796869],[6.7662616,45.0793937],[6.7660701,45.0792235],[6.766002,45.0790556],[6.7653835,45.076478],[6.7651555,45.0756454],[6.7651209,45.0755547],[6.7650124,45.0755075],[6.7647054,45.0754295],[6.7635591,45.0752585],[6.7620172,45.0750528],[6.7605376,45.0748482],[6.7596379,45.074709],[6.7587622,45.0745928],[6.7576142,45.0744668],[6.7574539,45.0744456],[6.7572093,45.0743553],[6.7564152,45.0740516],[6.7560012,45.0738589],[6.7558539,45.073829],[6.755496,45.0737815],[6.7551897,45.0736855],[6.7549347,45.0735589],[6.7544728,45.0733203],[6.754205,45.0731935],[6.7533331,45.0729828],[6.7523132,45.0727512],[6.752092,45.0727018],[6.7518372,45.0725573],[6.7507819,45.0719649],[6.7504392,45.0718456],[6.7498382,45.0716807],[6.7491492,45.0715456],[6.7481692,45.0713508],[6.7479695,45.0712883],[6.7476012,45.0711955],[6.7470638,45.0709914],[6.7461389,45.0705455],[6.7456257,45.0703599],[6.7453569,45.07026],[6.7452001,45.0701489],[6.7448029,45.069844],[6.7443195,45.0695284],[6.7441161,45.0693398],[6.7438892,45.0691238],[6.7436243,45.0689251],[6.7430316,45.0685533],[6.7424789,45.0681013],[6.7420975,45.0677156],[6.7418032,45.0673182],[6.7414569,45.0669783],[6.7411378,45.0665849],[6.7406025,45.0660162],[6.7403872,45.0658184],[6.7400221,45.0656447],[6.7394134,45.0653671],[6.7388905,45.0651091],[6.73866,45.0649741],[6.7384578,45.0647675],[6.7381738,45.0644198],[6.7379191,45.0642752],[6.737589,45.0641607],[6.7372106,45.0640137],[6.736944,45.0638598],[6.736701,45.063729],[6.736442,45.0637059],[6.7361329,45.0636817],[6.7358759,45.0635956],[6.735757,45.0634717],[6.7355834,45.0631532],[6.7355426,45.0629409],[6.73557,45.0628694],[6.735675,45.062723],[6.7358676,45.0625512],[6.7359208,45.0624578],[6.7358755,45.0623489],[6.7357678,45.0622522],[6.7355631,45.0620996],[6.7354573,45.0619535],[6.7351983,45.0616063],[6.7348347,45.0613965],[6.7347,45.0612498],[6.7346328,45.061172],[6.7346018,45.0610228],[6.7346203,45.0608657],[6.7346392,45.0606995],[6.7346053,45.0606223],[6.7344225,45.0605377],[6.7343503,45.0601762],[6.7343354,45.0599193],[6.7344112,45.0595698],[6.7345181,45.0590633],[6.734604,45.0587679],[6.734597,45.0586328],[6.7345533,45.0584834],[6.734429,45.0581838],[6.7341877,45.057702],[6.7338189,45.0573121],[6.7333877,45.0569254],[6.733024,45.0570397],[6.7326663,45.0573027],[6.7322965,45.0575699],[6.7318797,45.0577641],[6.731202,45.0579802],[6.7308864,45.0581225],[6.7307163,45.0583486],[6.7303763,45.0587965],[6.7301597,45.0592648],[6.7299642,45.0594994],[6.729531,45.0597969],[6.729092,45.0602472],[6.7287594,45.0605062],[6.7285169,45.0606769],[6.7281931,45.061107],[6.7279531,45.0614623],[6.7272843,45.0620746],[6.7268738,45.0624175],[6.7263598,45.0628258],[6.7260337,45.0627113],[6.7254089,45.0624918],[6.7249902,45.06229],[6.7243566,45.0619443],[6.7236783,45.0616832],[6.7235104,45.0616438],[6.7233236,45.0615996],[6.7230252,45.0614856],[6.7227543,45.0613722],[6.7226768,45.0612446],[6.7222868,45.0610118],[6.7218046,45.0606691],[6.7213938,45.0602603],[6.720792,45.0598117],[6.7206461,45.0596693],[6.7203073,45.0595365],[6.7201574,45.059493],[6.7199688,45.0593947],[6.7196232,45.0590818],[6.7194385,45.0588755],[6.7191548,45.0587348],[6.7187763,45.0585607],[6.7183912,45.058553],[6.7182271,45.0585182],[6.71751,45.0581979],[6.7172248,45.0581021],[6.7170321,45.0580983],[6.7147459,45.058111],[6.7144995,45.0580791],[6.7141873,45.0579648],[6.7135927,45.0576784],[6.7132189,45.0573873],[6.7128238,45.0569338],[6.7125523,45.0564873],[6.7123489,45.0560646],[6.7123333,45.0559293],[6.7123183,45.0557985],[6.7123382,45.0555837],[6.7124829,45.0547756],[6.7125718,45.0542777],[6.7125503,45.0541198],[6.7124716,45.0540237],[6.7122317,45.0538298],[6.7119055,45.0537198],[6.7116447,45.0537011],[6.7113428,45.053677],[6.7111255,45.0536051],[6.7108727,45.053375],[6.7103968,45.0528794],[6.7100402,45.0525076],[6.7092895,45.0519975],[6.7086471,45.051539],[6.7084194,45.0513769],[6.7082618,45.0511802],[6.7079703,45.0505487],[6.7079102,45.050336],[6.70793,45.0501878],[6.7080218,45.0499556],[6.7081469,45.0495756],[6.7081519,45.0494496],[6.7079967,45.0492035],[6.7077432,45.0486538],[6.7075516,45.0479388],[6.7074782,45.0473612],[6.707469,45.0469064],[6.7075691,45.0464673],[6.7078118,45.0459051],[6.7083439,45.0453397],[6.708749,45.0448437],[6.7092673,45.0439269],[6.7097124,45.0431257],[6.7097829,45.0429156],[6.7093222,45.0423752],[6.7090558,45.0419918],[6.7087678,45.0415719],[6.7086849,45.0414307],[6.7086796,45.0411876],[6.708751,45.0405229],[6.7087466,45.040444],[6.7086217,45.0403808],[6.708445,45.0403052],[6.708243,45.0401076],[6.7078107,45.0396758],[6.707441,45.0391778],[6.7069908,45.0388177],[6.7065233,45.0385113],[6.7061768,45.0381892],[6.7059757,45.0379692],[6.7055425,45.0375599],[6.7052969,45.0373209],[6.7049321,45.0370795],[6.7047744,45.0369053],[6.7046903,45.0367551],[6.7046142,45.036407],[6.7045759,45.0358661],[6.7045141,45.0351717],[6.7045673,45.0349612],[6.7046676,45.0347543],[6.7047143,45.0346581],[6.7051867,45.0337089],[6.705428,45.0332997],[6.7055286,45.0330362],[6.7055238,45.0327795],[6.7054275,45.0325571],[6.7050498,45.0318833],[6.7048674,45.0315736],[6.7047015,45.0312282],[6.7045037,45.0309272],[6.7037777,45.0299764],[6.7035267,45.0295077],[6.703478,45.0292277],[6.7034463,45.0288985]]]}}]}