{"type":"FeatureCollection","features":[{"type":"Feature","properties":{"name":"Pragelato","osm_id":43811,"source":"OpenStreetMap Nominatim"},"geometry":{"type":"Polygon","coordinates":[[[6.8710147,44.9932994],[6.871794,44.9929719],[6.8724167,44.9927179],[6.872485,44.9926067],[6.8726678,44.9917909],[6.8727678,44.9915632],[6.8728206,44.9914112],[6.8728541,44.9912453],[6.8729279,44.9911701],[6.8731521,44.9909717],[6.8735076,44.9908028],[6.8738118,44.9906375],[6.8740422,44.9904527],[6.8742346,44.9903843],[6.8749024,44.9900051],[6.8752302,44.9898447],[6.875331,44.9898736],[6.8754579,44.9899165],[6.8755742,44.9899861],[6.8757803,44.989999],[6.8760431,44.9899454],[6.8762536,44.9899358],[6.87633,44.9898832],[6.8764323,44.9898716],[6.8766002,44.9899107],[6.8767248,44.9899265],[6.8768874,44.989925],[6.8771303,44.9899611],[6.8774943,44.9900129],[6.877949,44.9900888],[6.8782155,44.9901163],[6.8786519,44.9896788],[6.8790262,44.9892672],[6.8797355,44.9885017],[6.8801856,44.9879699],[6.8806339,44.9874786],[6.8812164,44.9872149],[6.8822383,44.9868828],[6.8831459,44.9866161],[6.8843908,44.9862026],[6.8851472,44.9859105],[6.8853628,44.9851989],[6.8856819,44.9850922],[6.8866599,44.9852184],[6.8891316,44.9837878],[6.8912367,44.9825574],[6.8923223,44.9819654],[6.8942057,44.981415],[6.8948261,44.9811654],[6.8949516,44.9811137],[6.8961484,44.9805371],[6.8964623,44.9803854],[6.8972325,44.9796029],[6.8974934,44.9793377],[6.8980575,44.9786414],[6.8994692,44.979167],[6.8996548,44.9792379],[6.902597,44.9802147],[6.9034353,44.9805182],[6.9054155,44.9792447],[6.9056052,44.9791852],[6.9057335,44.9791876],[6.9068261,44.9792571],[6.9078395,44.9793342],[6.9086162,44.979416],[6.9099446,44.980597],[6.9101198,44.9806632],[6.910307,44.9806712],[6.9106908,44.9807007],[6.9108677,44.9807174],[6.9112951,44.9809008],[6.9124917,44.9816428],[6.9127143,44.9817684],[6.9128328,44.9817571],[6.9128159,44.9814462],[6.9128648,44.9808215],[6.9129616,44.9799231],[6.9132235,44.9792482],[6.9133095,44.9783631],[6.9132933,44.9778812],[6.9131816,44.9775956],[6.9130915,44.9772834],[6.9128667,44.9769462],[6.912502,44.9765345],[6.9123605,44.9762393],[6.9121888,44.9759256],[6.9121607,44.975673],[6.9122367,44.9750758],[6.9121715,44.9745345],[6.9121131,44.9742769],[6.9120835,44.9739793],[6.9121631,44.9736522],[6.9123002,44.9732271],[6.9124612,44.9727124],[6.9126008,44.9722289],[6.9127627,44.9716872],[6.9128918,44.971208],[6.9131638,44.9704298],[6.913403,44.969723],[6.9135404,44.9692034],[6.9136493,44.9689083],[6.913858,44.9681155],[6.9138851,44.9680125],[6.91412,44.9673281],[6.9143447,44.9667246],[6.9145808,44.9658197],[6.9147591,44.9652963],[6.9149513,44.9645752],[6.9150867,44.9638125],[6.9151704,44.9631524],[6.9153022,44.9625787],[6.9152907,44.9624254],[6.9151185,44.9619947],[6.9144288,44.9604158],[6.9143657,44.9603651],[6.9142639,44.9601787],[6.9143325,44.9596849],[6.914307,44.9595449],[6.9142799,44.9590704],[6.9142698,44.9589861],[6.9141399,44.9584616],[6.9140697,44.9580597],[6.9140744,44.9576547],[6.914187,44.9573462],[6.9143327,44.9572499],[6.9144533,44.9571935],[6.9145303,44.9571229],[6.9147214,44.9569869],[6.9149389,44.9568783],[6.9151688,44.956788],[6.9155674,44.9567323],[6.9171518,44.9565587],[6.9230238,44.955986],[6.9226824,44.9542604],[6.9220463,44.9509182],[6.9220095,44.9490316],[6.922813,44.948236],[6.9236561,44.9475087],[6.924293,44.9469172],[6.924481,44.9466685],[6.9248216,44.9462201],[6.925752,44.9455529],[6.926207,44.94503],[6.9265484,44.9445681],[6.9269453,44.9437967],[6.9270494,44.9433935],[6.9279554,44.9424647],[6.9284208,44.9419691],[6.9285989,44.9416887],[6.9289587,44.9410111],[6.929102,44.9407617],[6.9290716,44.9406711],[6.9290104,44.9401929],[6.928875,44.9396053],[6.9286506,44.9390071],[6.9285613,44.9386814],[6.9285694,44.9384565],[6.9286752,44.9383234],[6.9291722,44.9378733],[6.9297708,44.9374071],[6.93056,44.9369263],[6.9308255,44.9367015],[6.9309538,44.9365463],[6.9309838,44.9363398],[6.9309676,44.936164],[6.9307789,44.935814],[6.9305174,44.9350036],[6.9304928,44.9347511],[6.9307835,44.9343983],[6.9329917,44.933077],[6.9335282,44.9327716],[6.9337948,44.9325154],[6.9342182,44.9322485],[6.9346463,44.9318512],[6.9349519,44.9314471],[6.9353729,44.9312477],[6.9356799,44.9311002],[6.9358084,44.9306434],[6.936036,44.9302244],[6.9362339,44.9300075],[6.9366224,44.9294654],[6.9368534,44.9289519],[6.9371503,44.9281471],[6.9373056,44.9278799],[6.9375134,44.9276946],[6.937696,44.9275944],[6.9386742,44.927459],[6.9399509,44.927095],[6.9406287,44.9269092],[6.9410182,44.9266596],[6.9414938,44.9261821],[6.9418364,44.9259812],[6.9425018,44.9258312],[6.9428176,44.9257604],[6.944471,44.9248674],[6.9449274,44.9246146],[6.9450341,44.9244545],[6.9451362,44.9241008],[6.9453347,44.9238658],[6.9455741,44.9234245],[6.9456489,44.9228947],[6.9458518,44.9225338],[6.9460142,44.9220551],[6.9459864,44.9219016],[6.9458353,44.9217413],[6.9458285,44.9216197],[6.9458988,44.9215264],[6.9461265,44.9214135],[6.946197,44.9213247],[6.9462429,44.9206594],[6.9461066,44.9200943],[6.9462968,44.9197782],[6.9461605,44.9188936],[6.945732,44.9177426],[6.9456196,44.917439],[6.9454189,44.9171068],[6.9453669,44.9166873],[6.9452299,44.9164553],[6.9447218,44.91596],[6.9442563,44.915524],[6.9442111,44.9152262],[6.9443695,44.9148599],[6.9445553,44.9143547],[6.9448561,44.913757],[6.9451244,44.9134512],[6.9451806,44.9131282],[6.9451851,44.9130022],[6.9453332,44.9129239],[6.9456521,44.9127631],[6.9458124,44.9126534],[6.9458841,44.9125287],[6.9459759,44.9118327],[6.9459898,44.9114414],[6.9460157,44.9113473],[6.9460869,44.9112271],[6.9461461,44.9111426],[6.9460793,44.9105068],[6.9460471,44.9101551],[6.9461094,44.9096611],[6.9462634,44.9094163],[6.946804,44.9089895],[6.947023,44.9088089],[6.9488409,44.9080044],[6.9492114,44.9079615],[6.949517,44.90785],[6.9496736,44.9075422],[6.9499133,44.9067678],[6.9501829,44.9064216],[6.9505287,44.9061262],[6.9511336,44.9057905],[6.951701,44.9055532],[6.9520515,44.9054469],[6.9525444,44.9054108],[6.9528916,44.905399],[6.9532584,44.9054596],[6.9537019,44.9055665],[6.954014,44.9055946],[6.9543025,44.9056538],[6.9545363,44.9056895],[6.9547942,44.9056626],[6.9549638,44.9056117],[6.9551121,44.9055288],[6.9552386,44.905432],[6.9554252,44.9052148],[6.9557394,44.9048604],[6.9558883,44.9047685],[6.956102,44.9047273],[6.9565836,44.904709],[6.9568407,44.9047136],[6.9569989,44.9046624],[6.9571022,44.9045832],[6.9573924,44.9042913],[6.9576972,44.9042023],[6.9578763,44.9041965],[6.9579876,44.9042165],[6.9581863,44.904283],[6.9584435,44.9042876],[6.9585901,44.9042497],[6.9587612,44.9041583],[6.9589614,44.9038693],[6.9591134,44.9036785],[6.9592744,44.9035463],[6.9596215,44.903539],[6.9603281,44.9034796],[6.9607085,44.9034684],[6.9609198,44.9035037],[6.9611193,44.9035478],[6.9613996,44.9035258],[6.9624098,44.9034223],[6.9632611,44.90337],[6.9634527,44.9033374],[6.9636127,44.9032322],[6.9640551,44.9027315],[6.9646709,44.9024004],[6.965849,44.9016427],[6.9661209,44.901544],[6.9664467,44.9014958],[6.9673554,44.9014085],[6.9680664,44.9012276],[6.9685657,44.9010205],[6.9688464,44.9009849],[6.9694382,44.9010045],[6.9699855,44.9010187],[6.9709395,44.9012292],[6.9712399,44.901275],[6.9713857,44.9012596],[6.9729038,44.9006925],[6.9733934,44.9004446],[6.9738784,44.9003182],[6.9739868,44.9001041],[6.9744851,44.8999149],[6.9749194,44.8999676],[6.9769669,44.8999229],[6.9777182,44.8998642],[6.9780788,44.899785],[6.9783488,44.8997358],[6.9789524,44.8997375],[6.979502,44.8996842],[6.9805102,44.8993105],[6.9810772,44.8990774],[6.9814302,44.8988991],[6.9822079,44.8987193],[6.9826332,44.8986998],[6.9834147,44.8987407],[6.9841601,44.8988393],[6.9847215,44.8987772],[6.9856462,44.8988656],[6.9870309,44.8985884],[6.9876907,44.8985866],[6.9880449,44.8983723],[6.9885031,44.8996586],[6.9886138,44.9000026],[6.9887005,44.9004093],[6.9887318,44.9014315],[6.9887001,44.9023402],[6.9888184,44.9024773],[6.9888673,44.9026762],[6.9893671,44.9037337],[6.9899505,44.9052789],[6.9899558,44.9054455],[6.9898104,44.9060956],[6.9901878,44.9068089],[6.990215,44.9069939],[6.9900652,44.9074413],[6.989949,44.9075698],[6.9899009,44.907668],[6.9899278,44.907862],[6.9900816,44.9082518],[6.9900916,44.9083006],[6.9901392,44.9085319],[6.9901471,44.908622],[6.9900744,44.9087783],[6.989937,44.9088704],[6.9895844,44.9090487],[6.9893736,44.9093151],[6.9887267,44.9099158],[6.9886529,44.9101036],[6.9886882,44.9103742],[6.9891297,44.9115073],[6.9892166,44.9118959],[6.9891659,44.9127052],[6.9887706,44.9137874],[6.9887849,44.9140127],[6.9888968,44.9143343],[6.9889067,44.9146855],[6.988627,44.9156573],[6.9886237,44.9157518],[6.9887209,44.915848],[6.9890349,44.9161416],[6.9891757,44.9162701],[6.9896186,44.9163995],[6.9908915,44.9171015],[6.9909878,44.9172247],[6.9910918,44.9174561],[6.9912713,44.9177563],[6.9929047,44.9188428],[6.9930325,44.9189351],[6.9925319,44.9188047],[6.9922089,44.9187675],[6.9918365,44.9188645],[6.9915059,44.9190477],[6.9911961,44.9192673],[6.9910081,44.9195251],[6.9908775,44.9197523],[6.9908474,44.9199678],[6.9908316,44.9204222],[6.9907562,44.9206639],[6.9905262,44.921164],[6.9902661,44.9218885],[6.989973,44.9225945],[6.9898309,44.9228216],[6.9893378,44.923164],[6.9892179,44.9234004],[6.9886372,44.9240068],[6.9883607,44.9242495],[6.988235,44.9246389],[6.9881035,44.9248796],[6.9879365,44.9251827],[6.9878876,44.9275449],[6.9876593,44.9279955],[6.9876045,44.9285661],[6.9876811,44.928968],[6.9876617,44.9292063],[6.9876787,44.9293551],[6.9878687,44.929687],[6.9879765,44.9297969],[6.9880082,44.9301711],[6.9878556,44.9310236],[6.9876186,44.9323562],[6.9876247,44.9324043],[6.9876627,44.9327035],[6.9879174,44.9330996],[6.9879152,44.9337972],[6.9879881,44.933956],[6.9881772,44.9343015],[6.9882044,44.9344865],[6.9881829,44.9347832],[6.9884896,44.9349731],[6.9889238,44.9353543],[6.9892254,44.9356747],[6.9894186,44.9359167],[6.9896317,44.936222],[6.9900635,44.9369903],[6.9901017,44.9371799],[6.9901527,44.9376355],[6.9902779,44.9378942],[6.9904298,44.9380364],[6.9906312,44.9386791],[6.9908853,44.9390932],[6.9912616,44.9395229],[6.9917256,44.9400171],[6.9916701,44.9406418],[6.9917636,44.9408235],[6.9919214,44.9411368],[6.9913007,44.9412969],[6.9908476,44.9414555],[6.9906978,44.9415699],[6.9905818,44.9416939],[6.9902866,44.9418237],[6.9901037,44.941933],[6.9899514,44.9421194],[6.9897825,44.9424765],[6.9896795,44.9428617],[6.9896101,44.9432521],[6.9896196,44.9434772],[6.9896255,44.943616],[6.9895027,44.9440919],[6.9892378,44.9449514],[6.9891475,44.945859],[6.9887242,44.9462161],[6.9888548,44.946673],[6.9895014,44.9474991],[6.9901867,44.9480423],[6.9908083,44.9490299],[6.9908476,44.9496293],[6.9909382,44.9504815],[6.990893,44.9512909],[6.9908742,44.9516236],[6.9907171,44.9519945],[6.9902847,44.9524865],[6.9897369,44.9528459],[6.9895696,44.9528159],[6.9894471,44.9528768],[6.989262,44.9530131],[6.9890444,44.9530407],[6.9887197,44.9532151],[6.9886439,44.9533218],[6.9884966,44.9534002],[6.9883747,44.953452],[6.9880708,44.9535457],[6.9879188,44.9537546],[6.9870882,44.9544646],[6.9865635,44.9551935],[6.9860739,44.956121],[6.9853789,44.956982],[6.9849783,44.9573575],[6.9843745,44.9575944],[6.9834636,44.9583524],[6.983274,44.9586191],[6.9826581,44.95954],[6.9821851,44.9599907],[6.9810394,44.9605826],[6.979899,44.9613771],[6.9791534,44.9618815],[6.9781981,44.9623642],[6.9770202,44.9628474],[6.9767543,44.9629935],[6.9757503,44.9635451],[6.9753324,44.9641156],[6.9751059,44.9644248],[6.974577,44.9652661],[6.9747263,44.9654713],[6.974817,44.9658015],[6.9748317,44.9662383],[6.9750732,44.9670663],[6.9758387,44.9680476],[6.9757825,44.9682716],[6.9755047,44.9686448],[6.9756667,44.9691743],[6.9759201,44.9700024],[6.9761126,44.9703434],[6.9761327,44.9704608],[6.9759431,44.9710606],[6.975815,44.9714589],[6.9754754,44.9720425],[6.9755324,44.9723045],[6.9755963,44.9725397],[6.9754153,44.9728966],[6.9755014,44.9731862],[6.975669,44.9733782],[6.9757172,44.9735501],[6.9755618,44.9738669],[6.9755207,44.9743478],[6.9755251,44.9749104],[6.9744189,44.9759035],[6.9740164,44.9760539],[6.9732119,44.9760081],[6.9720112,44.9761039],[6.9707303,44.9762611],[6.9690272,44.9767799],[6.9686352,44.976971],[6.9676368,44.9776464],[6.9674762,44.977423],[6.9673743,44.9774122],[6.9670485,44.9776044],[6.9665543,44.9779737],[6.9652366,44.9786524],[6.9646871,44.9790477],[6.9643712,44.9793076],[6.9643003,44.9796079],[6.9643682,44.9797261],[6.9645771,44.9797703],[6.9649644,44.9798808],[6.9651525,44.9800101],[6.9652085,44.9801417],[6.9652912,44.9803367],[6.9654461,44.980551],[6.9654301,44.9808343],[6.9654864,44.9811537],[6.9654481,44.9813624],[6.9655202,44.9815253],[6.9655882,44.9817255],[6.9656762,44.9821158],[6.9656776,44.9822976],[6.9656813,44.9831706],[6.9657869,44.9838109],[6.9663127,44.9844618],[6.9663657,44.9847599],[6.9662871,44.9849806],[6.9663151,44.9852568],[6.9664232,44.9855771],[6.9664565,44.9858702],[6.9664687,44.9862332],[6.9665099,44.9866501],[6.9671692,44.9875884],[6.967713,44.9881946],[6.9681764,44.9884119],[6.9689825,44.9889089],[6.9693608,44.9895895],[6.969505,44.9909536],[6.9702147,44.9916739],[6.9710444,44.9922293],[6.9711779,44.9926072],[6.9715267,44.9934015],[6.9722709,44.9936576],[6.972767,44.993923],[6.9736016,44.9941448],[6.9744643,44.9942592],[6.9752091,44.9944749],[6.9757245,44.9943625],[6.976303,44.9943503],[6.9776819,44.9943252],[6.9796616,44.9943423],[6.9811576,44.9944182],[6.9817403,44.994442],[6.9827124,44.9947023],[6.984142,44.9947815],[6.9848174,44.9950905],[6.985347,44.995604],[6.9858649,44.9961082],[6.9869139,44.9962347],[6.9881419,44.9964004],[6.9891236,44.9963772],[6.9899116,44.9962336],[6.9898001,44.9967582],[6.9896499,44.9977548],[6.9894817,44.9985035],[6.9894443,44.9989844],[6.9896788,44.9990425],[6.989876,44.9994286],[6.9903091,45.0000258],[6.9906122,45.0006568],[6.9906516,45.0007792],[6.99067,45.0008361],[6.9907041,45.000942],[6.9906623,45.0012555],[6.9906384,45.0014345],[6.9906304,45.0014943],[6.9908021,45.0020059],[6.9912598,45.0032607],[6.9918905,45.004217],[6.9920123,45.0047953],[6.9920167,45.0048131],[6.9920202,45.0048269],[6.9920538,45.0049619],[6.9921788,45.0054627],[6.9921848,45.0054869],[6.9925134,45.0061589],[6.9926766,45.0063463],[6.9925981,45.007038],[6.992616,45.0074413],[6.9929283,45.0084481],[6.9933299,45.0089728],[6.9933645,45.0095405],[6.9936874,45.0101943],[6.9939887,45.0106857],[6.9941732,45.010932],[6.9934123,45.0115758],[6.990864,45.0136149],[6.9889907,45.0151167],[6.9870417,45.0167612],[6.985704,45.0180699],[6.9836939,45.0198438],[6.9829566,45.0205779],[6.9822554,45.0212091],[6.9816065,45.0217963],[6.9814281,45.0224593],[6.9816549,45.0228323],[6.9815552,45.0230511],[6.9809373,45.0235668],[6.9807445,45.024234],[6.9799114,45.0246334],[6.9794235,45.0250613],[6.9794818,45.0254089],[6.9793489,45.0257711],[6.9793706,45.0267662],[6.9787077,45.0277492],[6.9782736,45.0282456],[6.978348,45.028544],[6.9781257,45.0288416],[6.9781334,45.0290173],[6.9775094,45.0295013],[6.9769099,45.0298868],[6.976318,45.0300563],[6.9758372,45.0302819],[6.9753492,45.0305072],[6.9752986,45.0309429],[6.9751414,45.0309897],[6.9751624,45.0311926],[6.9750298,45.0313523],[6.9751915,45.0317737],[6.9751323,45.0320472],[6.9748565,45.0322629],[6.9746137,45.0323306],[6.9744502,45.0323772],[6.9737532,45.0324638],[6.9731738,45.0325391],[6.9726887,45.0328725],[6.9724887,45.032941],[6.9722089,45.0334716],[6.9718278,45.0336584],[6.9717485,45.0343096],[6.9714934,45.0347372],[6.9715445,45.0352872],[6.9715612,45.0354675],[6.9718709,45.0356846],[6.9719804,45.0360331],[6.9722655,45.0362722],[6.9725104,45.0365061],[6.9725338,45.036574],[6.9725937,45.0369892],[6.9724856,45.0370727],[6.9712586,45.037348],[6.970859,45.0374849],[6.9706062,45.037611],[6.9703449,45.0378539],[6.9700957,45.0380115],[6.9697765,45.0380733],[6.9692754,45.03842],[6.9689434,45.0386976],[6.9688541,45.0388221],[6.9685935,45.0391235],[6.9681229,45.0397182],[6.9677553,45.0401393],[6.9677021,45.0403184],[6.9680369,45.0407564],[6.9680804,45.0408517],[6.9681984,45.0410248],[6.968401,45.041186],[6.9686965,45.0417268],[6.9687157,45.0419027],[6.9687903,45.0421606],[6.9688843,45.0423063],[6.969097,45.0425306],[6.9693063,45.0427504],[6.9697335,45.0431901],[6.9698553,45.0434038],[6.9699518,45.043626],[6.9699423,45.0439634],[6.9699471,45.0442651],[6.9700093,45.0444012],[6.9700648,45.0448073],[6.9699842,45.0448869],[6.9699146,45.0449576],[6.969679,45.0451245],[6.9694637,45.0452197],[6.9692277,45.0453955],[6.9690278,45.045563],[6.9688072,45.0457616],[6.9688526,45.0459605],[6.9687714,45.046148],[6.9685167,45.0465711],[6.9683067,45.0467969],[6.9679931,45.0470029],[6.967769,45.047413],[6.9676682,45.0475147],[6.9673578,45.0476172],[6.9668611,45.0476938],[6.9665048,45.0480386],[6.9664124,45.0483295],[6.9662516,45.0484302],[6.9661719,45.0485638],[6.9659955,45.0486821],[6.965643,45.0489189],[6.9650911,45.0492961],[6.9650862,45.0494356],[6.9649343,45.0497119],[6.9647446,45.0499921],[6.9648329,45.0502457],[6.9653907,45.0509758],[6.9657788,45.0529001],[6.965856,45.0543058],[6.9595003,45.0565103],[6.9573997,45.0596053],[6.9507547,45.0646038],[6.9503769,45.0640569],[6.9496765,45.0629956],[6.9488146,45.0629441],[6.9483686,45.062819],[6.9471204,45.0627381],[6.9460953,45.0627107],[6.9450446,45.0626107],[6.9437875,45.0625116],[6.9423971,45.0623785],[6.941322,45.0621971],[6.9393066,45.0613641],[6.9375837,45.0609189],[6.935942,45.0604796],[6.9350713,45.0603018],[6.9353266,45.0598699],[6.9354807,45.0595891],[6.935698,45.0590124],[6.9358825,45.0587367],[6.9361342,45.0580526],[6.9363745,45.0575619],[6.9364879,45.0573209],[6.9366251,45.0570263],[6.936689,45.0568294],[6.9366893,45.0566989],[6.9366241,45.0565717],[6.9365609,45.0565075],[6.9364679,45.0564203],[6.9363521,45.0562427],[6.9362453,45.0560562],[6.9360721,45.0557741],[6.9359542,45.0555334],[6.9358863,45.0554781],[6.9354429,45.0555466],[6.9351842,45.055578],[6.9350214,45.055602],[6.934242,45.0545752],[6.9354395,45.0529721],[6.9358707,45.0523947],[6.9369083,45.050971],[6.9371202,45.0506665],[6.9359172,45.0497671],[6.9349828,45.0490345],[6.934439,45.0485431],[6.9340274,45.0481711],[6.9334262,45.0476399],[6.933064,45.0473199],[6.932826,45.0471096],[6.932579,45.0468171],[6.9319962,45.0444571],[6.9311757,45.0444557],[6.9305974,45.0441391],[6.9276616,45.0427626],[6.9238128,45.0409194],[6.9260261,45.0398208],[6.9255079,45.0390643],[6.9243896,45.0374011],[6.9229223,45.037559],[6.9189562,45.0379908],[6.9176943,45.0384224],[6.9153819,45.0378356],[6.9149014,45.0376603],[6.9142166,45.0375623],[6.9133481,45.0369748],[6.9124044,45.0361519],[6.9112332,45.0351268],[6.9102416,45.0342264],[6.9081932,45.0337838],[6.907244,45.0335729],[6.9063068,45.0334882],[6.9053431,45.0332185],[6.904372,45.032683],[6.9034228,45.0320175],[6.8998382,45.0261274],[6.8996892,45.0256341],[6.8994768,45.024955],[6.8993357,45.0247049],[6.8992528,45.0244108],[6.8992218,45.0242617],[6.8992319,45.0240728],[6.8991826,45.0239549],[6.8991101,45.0237465],[6.8989761,45.0233975],[6.8989481,45.0230684],[6.8989308,45.022717],[6.8989959,45.0224032],[6.899334,45.0218333],[6.8996687,45.0213578],[6.8998756,45.0211771],[6.8999919,45.0210127],[6.900033,45.0208874],[6.9001764,45.0209036],[6.9002518,45.0208465],[6.900552,45.0203074],[6.9008534,45.0199168],[6.9013273,45.0194755],[6.9017428,45.0191635],[6.9022674,45.0188536],[6.9024566,45.0187986],[6.9028963,45.0186716],[6.9032796,45.0185166],[6.903493,45.0183405],[6.9035644,45.0182113],[6.9036022,45.0180004],[6.9036043,45.0176719],[6.9036336,45.0175104],[6.9037348,45.0172917],[6.9035465,45.0171488],[6.9031836,45.016845],[6.9029741,45.0166296],[6.9027839,45.0165361],[6.9024359,45.0163677],[6.9021123,45.0161817],[6.9017029,45.0157736],[6.901488,45.0156301],[6.9013828,45.0154932],[6.9012165,45.015193],[6.9011201,45.0149977],[6.9010044,45.0148741],[6.9007565,45.0146265],[6.9006492,45.014449],[6.9004857,45.0140814],[6.9003806,45.0139399],[6.9002396,45.0137843],[6.9001098,45.0135794],[6.9001099,45.0134038],[6.900026,45.0132267],[6.8999655,45.0131446],[6.9000261,45.0128667],[6.8999629,45.012762],[6.8998023,45.012588],[6.8996229,45.0124722],[6.8995439,45.0123447],[6.8994977,45.0122403],[6.8994775,45.0119699],[6.8994819,45.0118485],[6.8993205,45.011697],[6.8992044,45.0115868],[6.898882,45.0114548],[6.8984365,45.0113071],[6.898295,45.0112505],[6.8981734,45.0110187],[6.8978334,45.0107199],[6.8975871,45.0104273],[6.8975019,45.0102952],[6.8974403,45.0099655],[6.8973228,45.0095222],[6.8972515,45.0092824],[6.8971769,45.0091325],[6.8972266,45.0088679],[6.8972265,45.0086878],[6.8970963,45.0084199],[6.8970218,45.0081709],[6.8970048,45.0079096],[6.8969735,45.007756],[6.8968458,45.0074205],[6.8966853,45.0071475],[6.8965054,45.0069597],[6.8960736,45.0065241],[6.8958583,45.0063851],[6.8954776,45.0062971],[6.8949757,45.0062293],[6.8943547,45.0062314],[6.8942644,45.0062333],[6.8938935,45.0062409],[6.8936253,45.0062674],[6.8933329,45.006325],[6.8929986,45.0063369],[6.8924163,45.0062766],[6.8921656,45.0061055],[6.8921116,45.0060235],[6.891991,45.0059492],[6.891704,45.0058494],[6.8914638,45.0057594],[6.8910843,45.0054464],[6.8906945,45.0052411],[6.8904822,45.0050842],[6.8903563,45.0049918],[6.8901644,45.0048622],[6.8899986,45.0046476],[6.890094,45.0045009],[6.8900878,45.0043027],[6.8899634,45.0041474],[6.8897699,45.0039638],[6.8896827,45.0037911],[6.889657,45.0035836],[6.8895473,45.0034735],[6.8893287,45.0033345],[6.8891515,45.0030746],[6.8890575,45.0028164],[6.8888616,45.0026867],[6.8885007,45.0024325],[6.888388,45.0022189],[6.8882707,45.0019556],[6.8880315,45.0016587],[6.8879727,45.0015855],[6.8877188,45.0012658],[6.8872614,45.0009918],[6.8869679,45.0008873],[6.8866375,45.0007912],[6.8864097,45.0007239],[6.8858718,45.0005564],[6.8853851,45.0004439],[6.8851877,45.0003547],[6.884845,45.0003259],[6.8844188,45.00039],[6.884142,45.0003804],[6.8836383,45.000182],[6.8832425,44.9999586],[6.8829039,44.9997318],[6.8825742,44.9995231],[6.8823573,44.9993391],[6.8820164,44.9990807],[6.8818506,44.9989741],[6.8817139,44.9988005],[6.8815992,44.9986319],[6.8813695,44.9984926],[6.8809098,44.9983265],[6.8805552,44.9982029],[6.8803103,44.9980813],[6.8794739,44.9976877],[6.87921,44.9975883],[6.8783005,44.9974904],[6.8775309,44.997278],[6.8772764,44.9971158],[6.8769439,44.996682],[6.8767255,44.9964439],[6.8764101,44.99615],[6.8760817,44.9959053],[6.8759057,44.9957985],[6.8755711,44.9956257],[6.875207,44.9955559],[6.8750821,44.9954591],[6.8748503,44.9950902],[6.8743356,44.9949231],[6.8732241,44.9947359],[6.8728355,44.9946296],[6.8722009,44.9941452],[6.8716134,44.9937697],[6.8710147,44.9932994]]]}}]}