{"type":"FeatureCollection","features":[{"type":"Feature","properties":{"name":"Sestriere","osm_id":43872,"source":"OpenStreetMap Nominatim"},"geometry":{"type":"Polygon","coordinates":[[[6.8331486,44.9434321],[6.8334451,44.9431316],[6.8334735,44.9430061],[6.8333982,44.9427977],[6.8336119,44.9424866],[6.8337218,44.9423987],[6.8341147,44.9423791],[6.8374149,44.9427163],[6.8396019,44.9410878],[6.8417624,44.9411017],[6.8454357,44.9413151],[6.8463798,44.9421026],[6.8471054,44.9423908],[6.8474482,44.943392],[6.8488997,44.9429963],[6.8500265,44.9427115],[6.8503011,44.9426761],[6.8504436,44.9426788],[6.8505842,44.942722],[6.8507113,44.9428189],[6.8536532,44.9451337],[6.8537594,44.9451537],[6.8545464,44.9450695],[6.8578927,44.9451368],[6.8587229,44.94549],[6.8593639,44.9458081],[6.8594667,44.945918],[6.8597389,44.9461077],[6.8605994,44.9461148],[6.8606812,44.9461523],[6.8607259,44.9462297],[6.8608453,44.9468531],[6.8609303,44.9471247],[6.8611552,44.9474575],[6.8615374,44.9477257],[6.8616281,44.9478444],[6.8618336,44.9483794],[6.8621001,44.9492036],[6.8624328,44.9496734],[6.8626378,44.9497537],[6.8636505,44.9498042],[6.8643638,44.9498401],[6.8648264,44.9498757],[6.8651838,44.9499814],[6.865826,44.9502365],[6.866482,44.9505233],[6.8667739,44.9506008],[6.8671572,44.9502974],[6.8674757,44.9501458],[6.8677627,44.9501511],[6.8690989,44.9502706],[6.8702152,44.950368],[6.870697,44.950386],[6.8714931,44.9502748],[6.8725296,44.9497855],[6.8729394,44.9496311],[6.8730747,44.9495931],[6.8732511,44.9495469],[6.8737268,44.9495287],[6.8739661,44.9494837],[6.8741021,44.9493422],[6.8742296,44.949151],[6.8743408,44.9489821],[6.8744542,44.9488086],[6.8746607,44.9486864],[6.8747135,44.9485434],[6.8747682,44.9483509],[6.874786,44.9481892],[6.8751225,44.9480784],[6.8768646,44.9472106],[6.8785664,44.9480795],[6.8861073,44.9455098],[6.8886328,44.9446518],[6.8920215,44.9435577],[6.8934218,44.943588],[6.8952299,44.9435044],[6.8957552,44.9434285],[6.8961399,44.9432961],[6.8968593,44.9427827],[6.8972965,44.9425162],[6.8977033,44.9424382],[6.8979582,44.9422809],[6.8986915,44.9417138],[6.898972,44.9415164],[6.9000431,44.941122],[6.9002612,44.941009],[6.900506,44.9404734],[6.9007907,44.939835],[6.9008773,44.939742],[6.9020902,44.9393682],[6.9022117,44.939285],[6.9027656,44.938431],[6.9031342,44.9377626],[6.9035271,44.9374007],[6.9037473,44.9372292],[6.9046272,44.9368718],[6.9052984,44.9366906],[6.9067223,44.9367212],[6.9071238,44.9367781],[6.907302,44.9367813],[6.908108,44.9364945],[6.9082533,44.9364207],[6.908281,44.9363408],[6.908306,44.9362686],[6.9085453,44.9358481],[6.90916,44.9353166],[6.9092343,44.9352324],[6.9092513,44.9349787],[6.9092602,44.9348458],[6.9093695,44.9347803],[6.9094548,44.9347233],[6.909768,44.934594],[6.91067,44.934282],[6.9110396,44.9342347],[6.9113348,44.9342851],[6.9117586,44.9343829],[6.912136,44.9344483],[6.912375,44.9344122],[6.9131634,44.9342736],[6.9134464,44.9343328],[6.9138668,44.9344005],[6.914013,44.9344241],[6.9143332,44.934439],[6.9156384,44.9341253],[6.9170104,44.9336192],[6.91839,44.9332302],[6.9206578,44.932853],[6.9237133,44.9320039],[6.9245612,44.9322428],[6.9249164,44.9323421],[6.9256939,44.932562],[6.9270277,44.9328068],[6.9282592,44.9330857],[6.9283464,44.9331503],[6.9288939,44.9337949],[6.9289596,44.9338276],[6.9307835,44.9343983],[6.9304928,44.9347511],[6.9305174,44.9350036],[6.9307789,44.935814],[6.9309676,44.936164],[6.9309838,44.9363398],[6.9309538,44.9365463],[6.9308255,44.9367015],[6.93056,44.9369263],[6.9297708,44.9374071],[6.9291722,44.9378733],[6.9286752,44.9383234],[6.9285694,44.9384565],[6.9285613,44.9386814],[6.9286506,44.9390071],[6.928875,44.9396053],[6.9290104,44.9401929],[6.9290716,44.9406711],[6.929102,44.9407617],[6.9289587,44.9410111],[6.9285989,44.9416887],[6.9284208,44.9419691],[6.9279554,44.9424647],[6.9270494,44.9433935],[6.9269453,44.9437967],[6.9265484,44.9445681],[6.926207,44.94503],[6.925752,44.9455529],[6.9248216,44.9462201],[6.924481,44.9466685],[6.924293,44.9469172],[6.9236561,44.9475087],[6.922813,44.948236],[6.9220095,44.9490316],[6.9220463,44.9509182],[6.9226824,44.9542604],[6.9230238,44.955986],[6.9171518,44.9565587],[6.9155674,44.9567323],[6.9151688,44.956788],[6.9149389,44.9568783],[6.9147214,44.9569869],[6.9145303,44.9571229],[6.9144533,44.9571935],[6.9143327,44.9572499],[6.914187,44.9573462],[6.9140744,44.9576547],[6.9140697,44.9580597],[6.9141399,44.9584616],[6.9142698,44.9589861],[6.9142799,44.9590704],[6.914307,44.9595449],[6.9143325,44.9596849],[6.9142639,44.9601787],[6.9143657,44.9603651],[6.9144288,44.9604158],[6.9151185,44.9619947],[6.9152907,44.9624254],[6.9153022,44.9625787],[6.9151704,44.9631524],[6.9150867,44.9638125],[6.9149513,44.9645752],[6.9147591,44.9652963],[6.9145808,44.9658197],[6.9143447,44.9667246],[6.91412,44.9673281],[6.9138851,44.9680125],[6.913858,44.9681155],[6.9136493,44.9689083],[6.9135404,44.9692034],[6.913403,44.969723],[6.9131638,44.9704298],[6.9128918,44.971208],[6.9127627,44.9716872],[6.9126008,44.9722289],[6.9124612,44.9727124],[6.9123002,44.9732271],[6.9121631,44.9736522],[6.9120835,44.9739793],[6.9121131,44.9742769],[6.9121715,44.9745345],[6.9122367,44.9750758],[6.9121607,44.975673],[6.9121888,44.9759256],[6.9123605,44.9762393],[6.912502,44.9765345],[6.9128667,44.9769462],[6.9130915,44.9772834],[6.9131816,44.9775956],[6.9132933,44.9778812],[6.9133095,44.9783631],[6.9132235,44.9792482],[6.9129616,44.9799231],[6.9128648,44.9808215],[6.9128159,44.9814462],[6.9128328,44.9817571],[6.9127143,44.9817684],[6.9124917,44.9816428],[6.9112951,44.9809008],[6.9108677,44.9807174],[6.9106908,44.9807007],[6.910307,44.9806712],[6.9101198,44.9806632],[6.9099446,44.980597],[6.9086162,44.979416],[6.9078395,44.9793342],[6.9068261,44.9792571],[6.9057335,44.9791876],[6.9056052,44.9791852],[6.9054155,44.9792447],[6.9034353,44.9805182],[6.902597,44.9802147],[6.8996548,44.9792379],[6.8994692,44.979167],[6.8980575,44.9786414],[6.8974934,44.9793377],[6.8972325,44.9796029],[6.8964623,44.9803854],[6.8961484,44.9805371],[6.8949516,44.9811137],[6.8948261,44.9811654],[6.8942057,44.981415],[6.8923223,44.9819654],[6.8912367,44.9825574],[6.8891316,44.9837878],[6.8866599,44.9852184],[6.8856819,44.9850922],[6.8853628,44.9851989],[6.8851472,44.9859105],[6.8843908,44.9862026],[6.8831459,44.9866161],[6.8822383,44.9868828],[6.8812164,44.9872149],[6.8806339,44.9874786],[6.8801856,44.9879699],[6.8797355,44.9885017],[6.8790262,44.9892672],[6.8786519,44.9896788],[6.8782155,44.9901163],[6.877949,44.9900888],[6.8774943,44.9900129],[6.8771303,44.9899611],[6.8768874,44.989925],[6.8767248,44.9899265],[6.8766002,44.9899107],[6.8764323,44.9898716],[6.87633,44.9898832],[6.8762536,44.9899358],[6.8760431,44.9899454],[6.8757803,44.989999],[6.8755742,44.9899861],[6.8754579,44.9899165],[6.875331,44.9898736],[6.8752302,44.9898447],[6.8749024,44.9900051],[6.8742346,44.9903843],[6.8740422,44.9904527],[6.8738118,44.9906375],[6.8735076,44.9908028],[6.8731521,44.9909717],[6.8729279,44.9911701],[6.8728541,44.9912453],[6.8728206,44.9914112],[6.8727678,44.9915632],[6.8726678,44.9917909],[6.872485,44.9926067],[6.8724167,44.9927179],[6.871794,44.9929719],[6.8710147,44.9932994],[6.8708893,44.993153],[6.8707712,44.9929483],[6.8707184,44.9927358],[6.8706809,44.992465],[6.8703624,44.9917299],[6.8702788,44.9912468],[6.8702353,44.9907733],[6.8701491,44.9904477],[6.8700158,44.9901076],[6.8695286,44.9893604],[6.8692815,44.9891712],[6.8690532,44.9889329],[6.8687611,44.9886754],[6.8684875,44.9882607],[6.8682848,44.9882434],[6.8675828,44.9881673],[6.8677718,44.9877297],[6.8682396,44.9864467],[6.8686326,44.9853513],[6.8680064,44.984966],[6.8669305,44.9842933],[6.8648372,44.9837276],[6.8641064,44.9827957],[6.8633186,44.9817457],[6.8624335,44.9806804],[6.8617236,44.9798165],[6.8614133,44.9793245],[6.8612487,44.9786463],[6.8609195,44.9780235],[6.8608105,44.9776839],[6.860634,44.977325],[6.8602897,44.9770125],[6.8600854,44.9768692],[6.8600269,44.976706],[6.8588324,44.9760535],[6.8577301,44.9753757],[6.8568601,44.9749948],[6.8563329,44.9747103],[6.855701,44.9741628],[6.8553467,44.9736836],[6.8551701,44.9733832],[6.8551749,44.9732528],[6.8548702,44.9728284],[6.8547526,44.9726237],[6.8547415,44.9724209],[6.8546653,44.9720954],[6.854527,44.9717553],[6.8543796,44.9713609],[6.8542903,44.9710892],[6.8543084,44.970995],[6.8543597,44.9709059],[6.8543163,44.9707836],[6.8543301,44.9704148],[6.854344,44.970136],[6.8544285,44.9699531],[6.8546666,44.9694984],[6.8549571,44.9691168],[6.8550464,44.9688889],[6.8554345,44.9683651],[6.8556359,44.9682024],[6.8557368,44.9680692],[6.8557435,44.9678893],[6.8558054,44.9677059],[6.8551577,44.9676893],[6.8547753,44.9676686],[6.8546003,44.9676203],[6.8544797,44.9674875],[6.8543355,44.9674128],[6.8541746,44.9673692],[6.8540077,44.9673076],[6.8538685,44.9671834],[6.8537133,44.967095],[6.853596,44.9668813],[6.8533181,44.9667275],[6.8530496,44.9665199],[6.8528251,44.9663131],[6.8523945,44.966107],[6.8521572,44.966053],[6.8518023,44.9660823],[6.8513843,44.9659305],[6.8508088,44.9656586],[6.8504764,44.9656793],[6.8498437,44.9655594],[6.8495415,44.9654592],[6.8491032,44.9654599],[6.8489005,44.9654561],[6.8486379,44.9653881],[6.8485083,44.9653047],[6.8481155,44.9648742],[6.8477072,44.9645604],[6.8471066,44.9641755],[6.8467139,44.9640286],[6.8463935,44.9638335],[6.8460049,44.9635876],[6.8457774,44.9633673],[6.84545,44.962956],[6.845132,44.9624954],[6.8450011,44.9620563],[6.844926,44.9615103],[6.8449483,44.9611056],[6.8449613,44.9606648],[6.8449425,44.9604799],[6.844851,44.9599696],[6.8448083,44.9594376],[6.8446938,44.9591519],[6.8445957,44.9589475],[6.8445024,44.9587522],[6.844407,44.9585479],[6.8439813,44.9584993],[6.8421715,44.9583391],[6.8407016,44.9582438],[6.8399751,44.958167],[6.8396178,44.9581648],[6.8394881,44.9581893],[6.8393817,44.9581738],[6.8392034,44.9581209],[6.8389479,44.9580576],[6.8387641,44.9580451],[6.8385104,44.9580268],[6.8383659,44.957961],[6.8382293,44.9578639],[6.8381341,44.9577496],[6.8380449,44.9574778],[6.8378846,44.9571372],[6.8378318,44.9568752],[6.8377126,44.9566209],[6.8374513,44.9562153],[6.8373568,44.9559885],[6.8371688,44.9554988],[6.8369992,44.955014],[6.8366943,44.9545987],[6.8361406,44.9539535],[6.8358943,44.9535483],[6.835629,44.9532507],[6.8351443,44.9529174],[6.8350085,44.9528113],[6.8348772,44.9525838],[6.8347638,44.9523656],[6.8346069,44.9521331],[6.8344068,44.9520617],[6.8340717,44.9519654],[6.8337843,44.9518654],[6.8335958,44.9517898],[6.8336148,44.950989],[6.8342268,44.9508746],[6.8345878,44.9507779],[6.8347938,44.9505883],[6.8347868,44.9503856],[6.8346065,44.9498916],[6.8345661,44.9493957],[6.8345235,44.9491068],[6.8344771,44.9490564],[6.834198,44.9482185],[6.8341648,44.9478263],[6.8341368,44.9475917],[6.83403,44.9474186],[6.8339457,44.947282],[6.83388,44.9469747],[6.8338415,44.9466274],[6.8337816,44.9458611],[6.8337511,44.9457255],[6.8336849,44.9455892],[6.8335733,44.945407],[6.8334043,44.9451608],[6.8333419,44.9449255],[6.8333419,44.9446105],[6.8333629,44.9443678],[6.8333234,44.9441555],[6.8331486,44.9434321]]]}}]}