{"type":"FeatureCollection","features":[{"type":"Feature","properties":{"name":"Sauze di Cesana","osm_id":43746,"source":"OpenStreetMap Nominatim"},"geometry":{"type":"Polygon","coordinates":[[[6.8233817,44.9407527],[6.8234228,44.9402944],[6.823461,44.9402276],[6.8235953,44.9401221],[6.8274058,44.9385834],[6.8274436,44.9385256],[6.8273872,44.938448],[6.8272068,44.9382015],[6.8270122,44.9376892],[6.826595,44.9367901],[6.8254313,44.9343689],[6.8256258,44.9344221],[6.8258493,44.9344488],[6.8270772,44.9344857],[6.8274848,44.9345475],[6.8280721,44.9344957],[6.8281598,44.9342408],[6.8282959,44.9337393],[6.8283507,44.9335783],[6.8297587,44.9338166],[6.8299974,44.9336186],[6.8299703,44.9335506],[6.8298531,44.9335078],[6.8295616,44.9333717],[6.8293547,44.9333453],[6.8292811,44.9332494],[6.8292977,44.9331237],[6.8293978,44.9329906],[6.8295312,44.9329166],[6.8297093,44.93292],[6.8298604,44.9329994],[6.8299756,44.933096],[6.8300795,44.9331746],[6.8303248,44.9332872],[6.8306161,44.9334278],[6.8308169,44.9334586],[6.8309964,44.933426],[6.8311157,44.9334013],[6.8311547,44.933312],[6.8310879,44.9331937],[6.8309997,44.933021],[6.8309329,44.9329027],[6.8309258,44.9327765],[6.8310038,44.932598],[6.8311269,44.9324743],[6.831191,44.9323495],[6.8311716,44.9322321],[6.8310663,44.9318835],[6.8307573,44.9309415],[6.8306448,44.9298276],[6.8306323,44.9285806],[6.8307216,44.9271554],[6.8323182,44.9263801],[6.835302,44.925325],[6.8379783,44.9245475],[6.8387855,44.9242342],[6.8391923,44.9241474],[6.8393471,44.9241369],[6.8395531,44.9240282],[6.8398223,44.9238083],[6.8405,44.9234655],[6.8408122,44.9233769],[6.8411233,44.9233063],[6.8414663,44.9233443],[6.8424741,44.9236919],[6.8427003,44.9236782],[6.843037,44.9235585],[6.8434593,44.9233729],[6.8439148,44.9232645],[6.8445001,44.9231675],[6.8452975,44.9231061],[6.8457172,44.9230015],[6.8461129,44.9228919],[6.8465761,44.9228827],[6.8472291,44.9228815],[6.8480505,44.92314],[6.8493194,44.9231774],[6.8497319,44.9232527],[6.8524242,44.9239515],[6.8546806,44.9239355],[6.8550143,44.9238967],[6.8552542,44.9238337],[6.8562689,44.9220839],[6.8569504,44.9213135],[6.8576927,44.9205083],[6.858025,44.9198664],[6.8581771,44.9196081],[6.8597341,44.9176434],[6.8600812,44.9172403],[6.861156,44.9161037],[6.862445,44.9149531],[6.8627485,44.9144547],[6.8629654,44.9130905],[6.8630301,44.9119754],[6.8634446,44.9113665],[6.863744,44.9109671],[6.8637027,44.9107998],[6.8634343,44.9100431],[6.8635086,44.9096394],[6.8634215,44.9094262],[6.8632141,44.9092558],[6.8634153,44.9089535],[6.8633745,44.9087727],[6.863501,44.9085635],[6.8634121,44.9083998],[6.86319,44.9079815],[6.8631555,44.9076433],[6.8633106,44.9069711],[6.8637677,44.9052107],[6.8639083,44.9042907],[6.8639657,44.9037021],[6.8640334,44.9034783],[6.8650385,44.9022999],[6.8658056,44.9014545],[6.866547,44.9009733],[6.8668949,44.9008763],[6.8678495,44.9000884],[6.8683838,44.8997563],[6.8684956,44.8996234],[6.8685293,44.8993539],[6.8686539,44.8991942],[6.869324,44.8987251],[6.8701872,44.8981561],[6.8705744,44.8979608],[6.8712603,44.8977035],[6.8715711,44.8973132],[6.8717235,44.897046],[6.8718979,44.8968242],[6.8719704,44.8967518],[6.8734869,44.895238],[6.8743045,44.8946276],[6.8766807,44.8945412],[6.876955,44.8944969],[6.8770897,44.8943868],[6.8772237,44.8939707],[6.8774135,44.8933306],[6.8775969,44.8928524],[6.8778895,44.8923222],[6.8781347,44.8921108],[6.8787616,44.8911952],[6.8791034,44.8909315],[6.8798793,44.8904823],[6.8821213,44.888872],[6.8824727,44.888667],[6.883253,44.8884204],[6.8845701,44.8880938],[6.885412,44.8877853],[6.8864655,44.8872017],[6.8888756,44.8855314],[6.8897118,44.8847277],[6.8902106,44.8843858],[6.8906099,44.8838441],[6.8913832,44.8834623],[6.8921993,44.8828832],[6.8932755,44.8823224],[6.8936662,44.8820146],[6.8938089,44.8816796],[6.8941871,44.8810655],[6.8944358,44.880755],[6.8951889,44.8799497],[6.8968913,44.8788018],[6.8975426,44.8781837],[6.8981664,44.877664],[6.8984457,44.8774801],[6.89911,44.8771548],[6.8996142,44.8769975],[6.9000807,44.8768891],[6.9007368,44.8767886],[6.9014024,44.8767513],[6.9019639,44.8766402],[6.9022768,44.8765109],[6.9028465,44.8761748],[6.9030987,44.8760939],[6.9035739,44.8760711],[6.9044181,44.8760191],[6.904907,44.875947],[6.9053507,44.8758111],[6.9057903,44.8757877],[6.9063225,44.875829],[6.9066536,44.8758621],[6.9070519,44.8759954],[6.9075951,44.8760638],[6.9079875,44.876044],[6.9083073,44.8760499],[6.9085119,44.8759726],[6.9087065,44.8758322],[6.9089741,44.8756525],[6.909581,44.875272],[6.9097932,44.8749834],[6.9099449,44.8747161],[6.9100943,44.8741967],[6.9101625,44.8739504],[6.9105457,44.8732012],[6.9108077,44.872837],[6.9110586,44.8724635],[6.9114482,44.8721825],[6.9118581,44.8719965],[6.9128707,44.87188],[6.914934,44.8715576],[6.9154027,44.8713951],[6.9160929,44.8709936],[6.9166943,44.870433],[6.9172366,44.8698758],[6.9179983,44.8688049],[6.918225,44.8684444],[6.9183718,44.8683211],[6.9185172,44.8682382],[6.9188029,44.8682029],[6.9190627,44.8682392],[6.9194652,44.8682555],[6.9198814,44.8682226],[6.9204575,44.8680305],[6.922647,44.8671747],[6.9235926,44.8669308],[6.924387,44.8666077],[6.9278445,44.8657658],[6.9291679,44.8652407],[6.931337,44.8646049],[6.9314224,44.8644491],[6.9318147,44.8637413],[6.9318895,44.8636475],[6.9330567,44.8635581],[6.9335924,44.8636301],[6.9337708,44.86363],[6.9340622,44.8635554],[6.934775,44.863261],[6.9353008,44.8630109],[6.9360636,44.8626049],[6.9380252,44.8614866],[6.9389383,44.8610285],[6.9391989,44.8609392],[6.9393739,44.8609],[6.9397103,44.8608618],[6.9405544,44.8608317],[6.9411128,44.8608362],[6.9416837,44.8608845],[6.9426865,44.8610425],[6.9430966,44.8610709],[6.943546,44.8610649],[6.9441067,44.8610108],[6.9443233,44.8609679],[6.944614,44.8608541],[6.9448852,44.8607237],[6.9453876,44.8604258],[6.9460852,44.8599548],[6.9463377,44.8597204],[6.946508,44.8595231],[6.9470371,44.8587486],[6.9471569,44.8586024],[6.9494642,44.8561466],[6.9495436,44.8560824],[6.9498144,44.8559297],[6.949947,44.8558936],[6.9500937,44.8558764],[6.9503173,44.8558774],[6.9518476,44.855995],[6.9521577,44.8559955],[6.9522478,44.8559775],[6.9535439,44.8551273],[6.9551048,44.8541821],[6.9556354,44.8538174],[6.9575331,44.8527079],[6.9583773,44.8522384],[6.9590427,44.8519984],[6.9603897,44.8509644],[6.9619203,44.8501508],[6.9626054,44.8498946],[6.9627016,44.8498662],[6.9629657,44.8497884],[6.9645222,44.8489511],[6.9649915,44.8489303],[6.9656634,44.8490471],[6.967335,44.84902],[6.9697595,44.8476448],[6.9697412,44.8468844],[6.9702329,44.8463157],[6.9710929,44.8461542],[6.9722276,44.8460214],[6.974237,44.8458431],[6.9755897,44.8457669],[6.9762677,44.8457586],[6.9769189,44.8457811],[6.9776473,44.8458536],[6.9777371,44.8458763],[6.9782982,44.8461104],[6.9785001,44.8461732],[6.979337,44.8463456],[6.9811793,44.8466652],[6.981293,44.8466636],[6.981415,44.8466259],[6.9819456,44.8463445],[6.9821206,44.84627],[6.9827043,44.8460942],[6.982914,44.8460525],[6.984138,44.8459289],[6.9849381,44.8457965],[6.9856053,44.8456515],[6.9863222,44.8454728],[6.986561,44.8454642],[6.9871006,44.8453308],[6.9875885,44.8451087],[6.9880251,44.8449448],[6.9885553,44.844842],[6.989231,44.8446193],[6.989587,44.844539],[6.9908002,44.8443765],[6.9911429,44.8442957],[6.9913755,44.844192],[6.9915081,44.8440865],[6.9917213,44.8438521],[6.9920995,44.843349],[6.9926582,44.8427533],[6.9928387,44.8425827],[6.9932563,44.8422498],[6.9934101,44.8421646],[6.9941627,44.8419438],[6.9949939,44.8418428],[6.9954202,44.841839],[6.9965774,44.841912],[6.9969468,44.841974],[6.99767,44.8421305],[6.9985464,44.8422634],[6.9987314,44.8422723],[6.9995353,44.8422582],[7.0000019,44.8422166],[7.0009059,44.8422054],[7.0012056,44.8421834],[7.0011956,44.8424441],[7.0014441,44.8430111],[7.0016785,44.8433438],[7.0021657,44.8437889],[7.0030166,44.8443754],[7.0037621,44.8451041],[7.0043535,44.8457716],[7.0048996,44.8464473],[7.0049939,44.8466245],[7.0050855,44.8468916],[7.0050851,44.8472247],[7.0050206,44.8481193],[7.0050248,44.8483174],[7.0051081,44.8484944],[7.0054904,44.8490682],[7.0064632,44.850341],[7.0068992,44.8509788],[7.0070426,44.8513674],[7.0073791,44.8522789],[7.0066129,44.8528012],[7.0052793,44.8535701],[7.0044325,44.8541539],[7.0039,44.8546847],[7.0036834,44.8549105],[7.0032972,44.8553178],[7.003071,44.855728],[7.0029005,44.8561301],[7.0027472,44.8563659],[7.0022851,44.8568035],[7.0035632,44.8586172],[7.0035879,44.8591938],[7.0037207,44.8595517],[7.003922,44.8598748],[7.0045064,44.8604161],[7.0049083,44.8607472],[7.0052582,44.8609694],[7.0056368,44.8619752],[7.0057869,44.8624865],[7.0058287,44.8625682],[7.0059596,44.8626605],[7.0075308,44.8634261],[7.0081461,44.8637294],[7.0085513,44.863966],[7.0087229,44.8641761],[7.0089999,44.8645725],[7.0094051,44.8654528],[7.0095562,44.8656129],[7.0097375,44.8658637],[7.0100548,44.8663778],[7.0103747,44.866829],[7.0106308,44.86718],[7.0110428,44.8678623],[7.011406,44.8683548],[7.0115509,44.8686859],[7.0116406,44.868998],[7.0117301,44.8699718],[7.0118191,44.8709591],[7.011793,44.8710621],[7.0114431,44.8714927],[7.0113566,44.8717297],[7.0111424,44.872113],[7.0109909,44.872619],[7.0110326,44.8733489],[7.011067,44.8736466],[7.011675,44.8751425],[7.0117133,44.8753277],[7.0115382,44.8758648],[7.0114644,44.876066],[7.0115447,44.8763285],[7.0118503,44.8768649],[7.0137385,44.8791483],[7.0141652,44.8797409],[7.0143314,44.8804279],[7.0143823,44.8809059],[7.0143026,44.8812646],[7.0133114,44.8827957],[7.0112096,44.8828041],[7.0107848,44.8828102],[7.009505,44.8829769],[7.0080593,44.8830868],[7.0076979,44.883193],[7.0062294,44.8836445],[7.0057256,44.8836672],[7.005145,44.883648],[7.0042418,44.8835872],[7.0039851,44.8835737],[7.0037923,44.8836559],[7.0028339,44.8842152],[7.0024291,44.8846178],[7.0019571,44.8853342],[7.0017782,44.8856551],[7.0015951,44.8857779],[7.0013573,44.8858683],[7.000898,44.8859007],[7.0006504,44.8859414],[7.0002897,44.8860386],[6.9996537,44.8863291],[6.9991027,44.8867425],[6.9985686,44.8873228],[6.9980024,44.8878439],[6.9975927,44.8880663],[6.9973173,44.8882685],[6.9966181,44.8894085],[6.9964243,44.8898372],[6.9962024,44.8904365],[6.9960926,44.8910241],[6.9961399,44.8915876],[6.9962635,44.8922109],[6.9962535,44.8924988],[6.9962584,44.8926879],[6.9961929,44.8929568],[6.9959262,44.8932402],[6.9950622,44.8936526],[6.9941612,44.8941589],[6.9936603,44.8944292],[6.9930268,44.8949582],[6.9921195,44.8956579],[6.9918119,44.895819],[6.9915523,44.8958865],[6.9908539,44.8960407],[6.9906679,44.8960759],[6.9902014,44.8961642],[6.9899527,44.8962364],[6.9897057,44.8965876],[6.9895127,44.8966742],[6.989366,44.8967167],[6.9888735,44.8970501],[6.9885817,44.897405],[6.9884541,44.8976158],[6.9883444,44.8977969],[6.9881976,44.8981589],[6.9880449,44.8983723],[6.9876907,44.8985866],[6.9870309,44.8985884],[6.9856462,44.8988656],[6.9847215,44.8987772],[6.9841601,44.8988393],[6.9834147,44.8987407],[6.9826332,44.8986998],[6.9822079,44.8987193],[6.9814302,44.8988991],[6.9810772,44.8990774],[6.9805102,44.8993105],[6.979502,44.8996842],[6.9789524,44.8997375],[6.9783488,44.8997358],[6.9780788,44.899785],[6.9777182,44.8998642],[6.9769669,44.8999229],[6.9749194,44.8999676],[6.9744851,44.8999149],[6.9739868,44.9001041],[6.9738784,44.9003182],[6.9733934,44.9004446],[6.9729038,44.9006925],[6.9713857,44.9012596],[6.9712399,44.901275],[6.9709395,44.9012292],[6.9699855,44.9010187],[6.9694382,44.9010045],[6.9688464,44.9009849],[6.9685657,44.9010205],[6.9680664,44.9012276],[6.9673554,44.9014085],[6.9664467,44.9014958],[6.9661209,44.901544],[6.965849,44.9016427],[6.9646709,44.9024004],[6.9640551,44.9027315],[6.9636127,44.9032322],[6.9634527,44.9033374],[6.9632611,44.90337],[6.9624098,44.9034223],[6.9613996,44.9035258],[6.9611193,44.9035478],[6.9609198,44.9035037],[6.9607085,44.9034684],[6.9603281,44.9034796],[6.9596215,44.903539],[6.9592744,44.9035463],[6.9591134,44.9036785],[6.9589614,44.9038693],[6.9587612,44.9041583],[6.9585901,44.9042497],[6.9584435,44.9042876],[6.9581863,44.904283],[6.9579876,44.9042165],[6.9578763,44.9041965],[6.9576972,44.9042023],[6.9573924,44.9042913],[6.9571022,44.9045832],[6.9569989,44.9046624],[6.9568407,44.9047136],[6.9565836,44.904709],[6.956102,44.9047273],[6.9558883,44.9047685],[6.9557394,44.9048604],[6.9554252,44.9052148],[6.9552386,44.905432],[6.9551121,44.9055288],[6.9549638,44.9056117],[6.9547942,44.9056626],[6.9545363,44.9056895],[6.9543025,44.9056538],[6.954014,44.9055946],[6.9537019,44.9055665],[6.9532584,44.9054596],[6.9528916,44.905399],[6.9525444,44.9054108],[6.9520515,44.9054469],[6.951701,44.9055532],[6.9511336,44.9057905],[6.9505287,44.9061262],[6.9501829,44.9064216],[6.9499133,44.9067678],[6.9496736,44.9075422],[6.949517,44.90785],[6.9492114,44.9079615],[6.9488409,44.9080044],[6.947023,44.9088089],[6.946804,44.9089895],[6.9462634,44.9094163],[6.9461094,44.9096611],[6.9460471,44.9101551],[6.9460793,44.9105068],[6.9461461,44.9111426],[6.9460869,44.9112271],[6.9460157,44.9113473],[6.9459898,44.9114414],[6.9459759,44.9118327],[6.9458841,44.9125287],[6.9458124,44.9126534],[6.9456521,44.9127631],[6.9453332,44.9129239],[6.9451851,44.9130022],[6.9451806,44.9131282],[6.9451244,44.9134512],[6.9448561,44.913757],[6.9445553,44.9143547],[6.9443695,44.9148599],[6.9442111,44.9152262],[6.9442563,44.915524],[6.9447218,44.91596],[6.9452299,44.9164553],[6.9453669,44.9166873],[6.9454189,44.9171068],[6.9456196,44.917439],[6.945732,44.9177426],[6.9461605,44.9188936],[6.9462968,44.9197782],[6.9461066,44.9200943],[6.9462429,44.9206594],[6.946197,44.9213247],[6.9461265,44.9214135],[6.9458988,44.9215264],[6.9458285,44.9216197],[6.9458353,44.9217413],[6.9459864,44.9219016],[6.9460142,44.9220551],[6.9458518,44.9225338],[6.9456489,44.9228947],[6.9455741,44.9234245],[6.9453347,44.9238658],[6.9451362,44.9241008],[6.9450341,44.9244545],[6.9449274,44.9246146],[6.944471,44.9248674],[6.9428176,44.9257604],[6.9425018,44.9258312],[6.9418364,44.9259812],[6.9414938,44.9261821],[6.9410182,44.9266596],[6.9406287,44.9269092],[6.9399509,44.927095],[6.9386742,44.927459],[6.937696,44.9275944],[6.9375134,44.9276946],[6.9373056,44.9278799],[6.9371503,44.9281471],[6.9368534,44.9289519],[6.9366224,44.9294654],[6.9362339,44.9300075],[6.936036,44.9302244],[6.9358084,44.9306434],[6.9356799,44.9311002],[6.9353729,44.9312477],[6.9349519,44.9314471],[6.9346463,44.9318512],[6.9342182,44.9322485],[6.9337948,44.9325154],[6.9335282,44.9327716],[6.9329917,44.933077],[6.9307835,44.9343983],[6.9289596,44.9338276],[6.9288939,44.9337949],[6.9283464,44.9331503],[6.9282592,44.9330857],[6.9270277,44.9328068],[6.9256939,44.932562],[6.9249164,44.9323421],[6.9245612,44.9322428],[6.9237133,44.9320039],[6.9206578,44.932853],[6.91839,44.9332302],[6.9170104,44.9336192],[6.9156384,44.9341253],[6.9143332,44.934439],[6.914013,44.9344241],[6.9138668,44.9344005],[6.9134464,44.9343328],[6.9131634,44.9342736],[6.912375,44.9344122],[6.912136,44.9344483],[6.9117586,44.9343829],[6.9113348,44.9342851],[6.9110396,44.9342347],[6.91067,44.934282],[6.909768,44.934594],[6.9094548,44.9347233],[6.9093695,44.9347803],[6.9092602,44.9348458],[6.9092513,44.9349787],[6.9092343,44.9352324],[6.90916,44.9353166],[6.9085453,44.9358481],[6.908306,44.9362686],[6.908281,44.9363408],[6.9082533,44.9364207],[6.908108,44.9364945],[6.907302,44.9367813],[6.9071238,44.9367781],[6.9067223,44.9367212],[6.9052984,44.9366906],[6.9046272,44.9368718],[6.9037473,44.9372292],[6.9035271,44.9374007],[6.9031342,44.9377626],[6.9027656,44.938431],[6.9022117,44.939285],[6.9020902,44.9393682],[6.9008773,44.939742],[6.9007907,44.939835],[6.900506,44.9404734],[6.9002612,44.941009],[6.9000431,44.941122],[6.898972,44.9415164],[6.8986915,44.9417138],[6.8979582,44.9422809],[6.8977033,44.9424382],[6.8972965,44.9425162],[6.8968593,44.9427827],[6.8961399,44.9432961],[6.8957552,44.9434285],[6.8952299,44.9435044],[6.8934218,44.943588],[6.8920215,44.9435577],[6.8886328,44.9446518],[6.8861073,44.9455098],[6.8785664,44.9480795],[6.8768646,44.9472106],[6.8751225,44.9480784],[6.874786,44.9481892],[6.8747682,44.9483509],[6.8747135,44.9485434],[6.8746607,44.9486864],[6.8744542,44.9488086],[6.8743408,44.9489821],[6.8742296,44.949151],[6.8741021,44.9493422],[6.8739661,44.9494837],[6.8737268,44.9495287],[6.8732511,44.9495469],[6.8730747,44.9495931],[6.8729394,44.9496311],[6.8725296,44.9497855],[6.8714931,44.9502748],[6.870697,44.950386],[6.8702152,44.950368],[6.8690989,44.9502706],[6.8677627,44.9501511],[6.8674757,44.9501458],[6.8671572,44.9502974],[6.8667739,44.9506008],[6.866482,44.9505233],[6.865826,44.9502365],[6.8651838,44.9499814],[6.8648264,44.9498757],[6.8643638,44.9498401],[6.8636505,44.9498042],[6.8626378,44.9497537],[6.8624328,44.9496734],[6.8621001,44.9492036],[6.8618336,44.9483794],[6.8616281,44.9478444],[6.8615374,44.9477257],[6.8611552,44.9474575],[6.8609303,44.9471247],[6.8608453,44.9468531],[6.8607259,44.9462297],[6.8606812,44.9461523],[6.8605994,44.9461148],[6.8597389,44.9461077],[6.8594667,44.945918],[6.8593639,44.9458081],[6.8587229,44.94549],[6.8578927,44.9451368],[6.8545464,44.9450695],[6.8537594,44.9451537],[6.8536532,44.9451337],[6.8507113,44.9428189],[6.8505842,44.942722],[6.8504436,44.9426788],[6.8503011,44.9426761],[6.8500265,44.9427115],[6.8488997,44.9429963],[6.8474482,44.943392],[6.8471054,44.9423908],[6.8463798,44.9421026],[6.8454357,44.9413151],[6.8417624,44.9411017],[6.8396019,44.9410878],[6.8374149,44.9427163],[6.8341147,44.9423791],[6.8337218,44.9423987],[6.8336119,44.9424866],[6.8333982,44.9427977],[6.8334735,44.9430061],[6.8334451,44.9431316],[6.8331486,44.9434321],[6.8316568,44.9433182],[6.8313621,44.9432541],[6.8303644,44.9429471],[6.8295412,44.9427289],[6.8293542,44.9426578],[6.8291805,44.9425375],[6.8289985,44.9423225],[6.8288212,44.9419905],[6.8286957,44.9418531],[6.8284742,44.9417409],[6.82763,44.9413332],[6.8273992,44.9412793],[6.8254956,44.9410585],[6.8251074,44.9409656],[6.8247681,44.9408241],[6.8245924,44.9407668],[6.8233817,44.9407527]]]}}]}