{"type":"FeatureCollection","features":[{"type":"Feature","properties":{"name":"Sauze d'Oulx","osm_id":44028,"source":"OpenStreetMap Nominatim"},"geometry":{"type":"Polygon","coordinates":[[[6.8375554,45.0132307],[6.8376983,45.0128913],[6.8379682,45.0123788],[6.8383885,45.0119502],[6.8387629,45.0114937],[6.8390217,45.011098],[6.8390497,45.0108825],[6.8391607,45.0108621],[6.8393167,45.0108875],[6.8395717,45.0109419],[6.8397752,45.0109502],[6.8399286,45.0109531],[6.8402115,45.0108955],[6.8405204,45.0108428],[6.8407786,45.0108207],[6.8411148,45.010845],[6.8413661,45.0108273],[6.841598,45.0107867],[6.8418952,45.0107833],[6.8421389,45.0107879],[6.8424805,45.0107628],[6.8428867,45.0107075],[6.8432513,45.0106919],[6.843495,45.0106875],[6.843625,45.0106044],[6.8437787,45.0105128],[6.8439367,45.0104033],[6.8439735,45.0103095],[6.8440703,45.0101312],[6.8441895,45.0098904],[6.8442943,45.0096764],[6.8443399,45.0095287],[6.8444548,45.0094049],[6.8445531,45.0091952],[6.8445475,45.009069],[6.8445249,45.0089651],[6.8446203,45.0086518],[6.8451034,45.0073377],[6.8454286,45.0064166],[6.8467226,45.0056534],[6.8476678,45.0051176],[6.848722,45.0045163],[6.8493265,45.0041631],[6.8500639,45.0037314],[6.850769,45.0033576],[6.851146,45.0030947],[6.8518377,45.0027206],[6.8525164,45.0023418],[6.8528167,45.0019019],[6.8530353,45.0016765],[6.8531514,45.0016156],[6.8533619,45.0015205],[6.85371,45.0014056],[6.8540132,45.0012492],[6.8542982,45.0011241],[6.8545475,45.0010612],[6.8547007,45.0009831],[6.8558109,45.0003153],[6.8560725,45.0001582],[6.856381,44.999975],[6.8569236,44.9998006],[6.8580511,44.9995157],[6.858721,44.9993617],[6.8591694,44.9990641],[6.8593681,44.9989148],[6.8596639,44.9988168],[6.8605303,44.998527],[6.8611525,44.9983631],[6.8617252,44.9979553],[6.8624442,44.9973521],[6.8629595,44.9971097],[6.8636861,44.9969973],[6.864151,44.9968214],[6.864916,44.9965702],[6.8659654,44.9961532],[6.8663969,44.9958957],[6.866976,44.9954585],[6.8670193,44.9954258],[6.8678688,44.994969],[6.869154,44.9943314],[6.8701445,44.9938233],[6.8710147,44.9932994],[6.8716134,44.9937697],[6.8722009,44.9941452],[6.8728355,44.9946296],[6.8732241,44.9947359],[6.8743356,44.9949231],[6.8748503,44.9950902],[6.8750821,44.9954591],[6.875207,44.9955559],[6.8755711,44.9956257],[6.8759057,44.9957985],[6.8760817,44.9959053],[6.8764101,44.99615],[6.8767255,44.9964439],[6.8769439,44.996682],[6.8772764,44.9971158],[6.8775309,44.997278],[6.8783005,44.9974904],[6.87921,44.9975883],[6.8794739,44.9976877],[6.8803103,44.9980813],[6.8805552,44.9982029],[6.8809098,44.9983265],[6.8813695,44.9984926],[6.8815992,44.9986319],[6.8817139,44.9988005],[6.8818506,44.9989741],[6.8820164,44.9990807],[6.8823573,44.9993391],[6.8825742,44.9995231],[6.8829039,44.9997318],[6.8832425,44.9999586],[6.8836383,45.000182],[6.884142,45.0003804],[6.8844188,45.00039],[6.884845,45.0003259],[6.8851877,45.0003547],[6.8853851,45.0004439],[6.8858718,45.0005564],[6.8864097,45.0007239],[6.8866375,45.0007912],[6.8869679,45.0008873],[6.8872614,45.0009918],[6.8877188,45.0012658],[6.8879727,45.0015855],[6.8880315,45.0016587],[6.8882707,45.0019556],[6.888388,45.0022189],[6.8885007,45.0024325],[6.8888616,45.0026867],[6.8890575,45.0028164],[6.8891515,45.0030746],[6.8893287,45.0033345],[6.8895473,45.0034735],[6.889657,45.0035836],[6.8896827,45.0037911],[6.8897699,45.0039638],[6.8899634,45.0041474],[6.8900878,45.0043027],[6.890094,45.0045009],[6.8899986,45.0046476],[6.8901644,45.0048622],[6.8903563,45.0049918],[6.8904822,45.0050842],[6.8906945,45.0052411],[6.8910843,45.0054464],[6.8914638,45.0057594],[6.891704,45.0058494],[6.891991,45.0059492],[6.8921116,45.0060235],[6.8921656,45.0061055],[6.8924163,45.0062766],[6.8929986,45.0063369],[6.8933329,45.006325],[6.8936253,45.0062674],[6.8938935,45.0062409],[6.8942644,45.0062333],[6.8943547,45.0062314],[6.8949757,45.0062293],[6.8954776,45.0062971],[6.8958583,45.0063851],[6.8960736,45.0065241],[6.8965054,45.0069597],[6.8966853,45.0071475],[6.8968458,45.0074205],[6.8969735,45.007756],[6.8970048,45.0079096],[6.8970218,45.0081709],[6.8970963,45.0084199],[6.8972265,45.0086878],[6.8972266,45.0088679],[6.8971769,45.0091325],[6.8972515,45.0092824],[6.8973228,45.0095222],[6.8974403,45.0099655],[6.8975019,45.0102952],[6.8975871,45.0104273],[6.8978334,45.0107199],[6.8981734,45.0110187],[6.898295,45.0112505],[6.8984365,45.0113071],[6.898882,45.0114548],[6.8992044,45.0115868],[6.8993205,45.011697],[6.8994819,45.0118485],[6.8994775,45.0119699],[6.8994977,45.0122403],[6.8995439,45.0123447],[6.8996229,45.0124722],[6.8998023,45.012588],[6.8999629,45.012762],[6.9000261,45.0128667],[6.8999655,45.0131446],[6.900026,45.0132267],[6.9001099,45.0134038],[6.9001098,45.0135794],[6.9002396,45.0137843],[6.9003806,45.0139399],[6.9004857,45.0140814],[6.9006492,45.014449],[6.9007565,45.0146265],[6.9010044,45.0148741],[6.9011201,45.0149977],[6.9012165,45.015193],[6.9013828,45.0154932],[6.901488,45.0156301],[6.9017029,45.0157736],[6.9021123,45.0161817],[6.9024359,45.0163677],[6.9027839,45.0165361],[6.9029741,45.0166296],[6.9031836,45.016845],[6.9035465,45.0171488],[6.9037348,45.0172917],[6.9036336,45.0175104],[6.9036043,45.0176719],[6.9036022,45.0180004],[6.9035644,45.0182113],[6.903493,45.0183405],[6.9032796,45.0185166],[6.9028963,45.0186716],[6.9024566,45.0187986],[6.9022674,45.0188536],[6.9017428,45.0191635],[6.9013273,45.0194755],[6.9008534,45.0199168],[6.900552,45.0203074],[6.9002518,45.0208465],[6.9001764,45.0209036],[6.900033,45.0208874],[6.8999919,45.0210127],[6.8998756,45.0211771],[6.8996687,45.0213578],[6.899334,45.0218333],[6.8989959,45.0224032],[6.8989308,45.022717],[6.8989481,45.0230684],[6.8989761,45.0233975],[6.8991101,45.0237465],[6.8991826,45.0239549],[6.8992319,45.0240728],[6.8992218,45.0242617],[6.8992528,45.0244108],[6.8993357,45.0247049],[6.8994768,45.024955],[6.8996892,45.0256341],[6.8998382,45.0261274],[6.8997876,45.02623],[6.8994964,45.0264272],[6.8981817,45.0273077],[6.8968731,45.0281928],[6.8954653,45.0291435],[6.8937466,45.0302865],[6.8923239,45.031273],[6.8909611,45.0321705],[6.8894631,45.0332185],[6.8879664,45.0342171],[6.8867753,45.0349984],[6.8865317,45.0351582],[6.886149,45.0353897],[6.8860718,45.0356763],[6.8859475,45.0361421],[6.8858603,45.036334],[6.8856545,45.0371178],[6.8853707,45.0381118],[6.8851278,45.0385349],[6.8849089,45.0389404],[6.8846065,45.0394479],[6.8841308,45.0394796],[6.8841446,45.0396419],[6.8841686,45.0398089],[6.8840542,45.0398337],[6.8837619,45.0398733],[6.883647,45.0397317],[6.8833246,45.0395007],[6.8830587,45.0391041],[6.88303,45.0389776],[6.8830274,45.038865],[6.8830825,45.0387265],[6.882603,45.0387761],[6.8821763,45.0389302],[6.8821976,45.0390747],[6.8823792,45.0394111],[6.8824905,45.0396517],[6.882095,45.0397794],[6.8810908,45.0400038],[6.8806812,45.0395146],[6.8805345,45.0392418],[6.8805365,45.0391564],[6.8805474,45.038711],[6.8804838,45.0381652],[6.8801416,45.0381498],[6.88007,45.038144],[6.8799351,45.038101],[6.8798114,45.0380987],[6.8796033,45.0381263],[6.8793197,45.0382111],[6.8790517,45.0382241],[6.8788176,45.0382378],[6.8785389,45.0382731],[6.8780904,45.0383863],[6.8776899,45.0384644],[6.8773174,45.0385069],[6.8768189,45.0386192],[6.8765565,45.0386638],[6.876416,45.0386657],[6.8760561,45.0386455],[6.8757922,45.0386361],[6.8754042,45.0385614],[6.8751748,45.0385301],[6.8749951,45.0385087],[6.8748315,45.0385102],[6.8746867,45.0385435],[6.8745046,45.0385851],[6.8742639,45.0385941],[6.8740495,45.0386081],[6.8738201,45.0385769],[6.8735707,45.0385407],[6.8732768,45.0384542],[6.8729834,45.0383407],[6.8728207,45.0383197],[6.87248,45.0383179],[6.8715492,45.0382735],[6.8712495,45.0382454],[6.870639,45.038135],[6.8704499,45.0381],[6.8703533,45.0379991],[6.8702373,45.037862],[6.870036,45.0376421],[6.8698077,45.0373048],[6.8697806,45.0371378],[6.8697751,45.0368361],[6.8697143,45.0366775],[6.8695749,45.0364678],[6.8695104,45.0363136],[6.8695024,45.0358993],[6.8694984,45.0354717],[6.8694567,45.0353359],[6.8694131,45.0352496],[6.8693545,45.0352062],[6.8692761,45.035157],[6.869147,45.0351276],[6.8690757,45.0350722],[6.8690425,45.0349726],[6.8690244,45.0347427],[6.8690102,45.0345804],[6.8689047,45.0344524],[6.8687278,45.0343546],[6.8685049,45.0342469],[6.8682383,45.0340439],[6.8680139,45.0338777],[6.8677536,45.0338683],[6.8676361,45.0338931],[6.8674261,45.0338532],[6.8673174,45.0338331],[6.867108,45.0336267],[6.8668228,45.0333918],[6.8665709,45.0333376],[6.8662795,45.0334492],[6.8653709,45.0331756],[6.8648668,45.0329907],[6.864571,45.0329446],[6.8643803,45.0329501],[6.8642736,45.0328535],[6.8640625,45.0326966],[6.863779,45.0326823],[6.8636503,45.0326438],[6.8632036,45.0324284],[6.8628629,45.0322555],[6.8624027,45.0317878],[6.8620303,45.0314658],[6.8618238,45.0312684],[6.8616648,45.0313194],[6.8615185,45.0313932],[6.8613617,45.0314803],[6.8611381,45.0316561],[6.8611287,45.031728],[6.8611013,45.031921],[6.8610473,45.032028],[6.8609482,45.0320891],[6.8608323,45.0321455],[6.8604776,45.0322513],[6.8602971,45.0322525],[6.8601989,45.0322911],[6.8602189,45.0323815],[6.8602125,45.0324669],[6.8601347,45.032587],[6.8600029,45.0327151],[6.8597564,45.032868],[6.8594883,45.0329845],[6.8592667,45.0331063],[6.8593372,45.0332697],[6.859331,45.0333506],[6.8593074,45.0334402],[6.8592704,45.0335385],[6.8592346,45.0336593],[6.8593217,45.034003],[6.8591371,45.0341571],[6.8591172,45.0342422],[6.8590697,45.0343989],[6.8589053,45.0345624],[6.8585093,45.034798],[6.857418,45.0353581],[6.8570618,45.035527],[6.8566485,45.0356722],[6.8563821,45.0356515],[6.8556472,45.0353834],[6.8545879,45.0349809],[6.8540692,45.0351557],[6.8529482,45.0355217],[6.8528173,45.0355642],[6.8522216,45.0357135],[6.851658,45.0366046],[6.8514038,45.0365053],[6.8511661,45.0365053],[6.8509967,45.0364751],[6.8508165,45.0363907],[6.8503091,45.0362642],[6.8489488,45.035784],[6.847897,45.035404],[6.847346,45.0352226],[6.8465496,45.0354687],[6.8455198,45.0357193],[6.845456,45.0355065],[6.8454148,45.0351772],[6.8454103,45.0350421],[6.8453957,45.0346187],[6.8453183,45.0341852],[6.8451029,45.0335195],[6.8449887,45.0329997],[6.8449307,45.0326746],[6.8448457,45.0320113],[6.8447318,45.0317481],[6.8444884,45.0315545],[6.8441967,45.0313239],[6.8438549,45.0309934],[6.8437036,45.03086],[6.8436446,45.0308049],[6.8430161,45.0301944],[6.8427285,45.0299414],[6.8423264,45.0295242],[6.8423381,45.0292139],[6.8422679,45.028686],[6.8422824,45.0285647],[6.8422169,45.0277308],[6.842167,45.0274013],[6.8421553,45.0273245],[6.8421794,45.0267759],[6.8421336,45.0261269],[6.8420383,45.025549],[6.8419691,45.0248996],[6.8419562,45.0240936],[6.8418861,45.0240068],[6.8419304,45.023535],[6.8418066,45.0232716],[6.8415259,45.0229198],[6.8414617,45.0226755],[6.841572,45.022169],[6.8416198,45.0219403],[6.8418478,45.0208464],[6.8418362,45.0205311],[6.84183,45.0203375],[6.8417729,45.0199043],[6.8411219,45.0193609],[6.8407723,45.0189852],[6.8401861,45.018227],[6.8397275,45.0176692],[6.8396369,45.0175595],[6.8390677,45.0171481],[6.8384731,45.0167093],[6.8382765,45.016431],[6.8379729,45.0158041],[6.8377428,45.0153542],[6.8376176,45.0146856],[6.8375982,45.0140416],[6.8375602,45.0137259],[6.8375554,45.0132307]]]}}]}